{"type":"FeatureCollection","features":[{"type":"Feature","id":"AC","properties":{"name":"AC","sigla":"AC","uf":"AC"},"geometry":{"type":"Polygon","coordinates":[[[-73.785,-7.121],[-72.659,-7.625],[-70.37,-8.141],[-66.589,-9.903],[-67.708,-10.711],[-68.06,-10.679],[-68.544,-11.11],[-69.417,-10.927],[-70.628,-11.004],[-70.63,-9.825],[-70.496,-9.424],[-71.222,-9.97],[-72.18,-10.0],[-72.358,-9.494],[-73.209,-9.414],[-72.954,-8.983],[-73.529,-8.351],[-73.774,-7.904],[-73.687,-7.776],[-73.99,-7.55],[-73.953,-7.346],[-73.69,-7.311],[-73.785,-7.121]]]}},{"type":"Feature","id":"AL","properties":{"name":"AL","sigla":"AL","uf":"AL"},"geometry":{"type":"MultiPolygon","coordinates":[[[[-35.903,-9.863],[-35.901,-9.863],[-35.902,-9.865],[-35.903,-9.863]]],[[[-35.895,-9.85],[-35.898,-9.857],[-35.901,-9.86],[-35.895,-9.85]]],[[[-35.913,-9.844],[-35.908,-9.843],[-35.91,-9.845],[-35.913,-9.844]]],[[[-36.064,-8.915],[-35.152,-8.916],[-36.284,-10.289],[-36.386,-10.501],[-36.992,-9.977],[-38.236,-9.331],[-37.76,-8.858],[-37.699,-8.992],[-37.49,-8.966],[-37.234,-9.24],[-36.908,-9.394],[-36.872,-9.269],[-36.604,-9.341],[-36.224,-9.171],[-36.064,-8.915]]]]}},{"type":"Feature","id":"AP","properties":{"name":"AP","sigla":"AP","uf":"AP"},"geometry":{"type":"MultiPolygon","coordinates":[[[[-50.036,0.845],[-50.024,0.852],[-50.03,0.845],[-50.036,0.845]]],[[[-49.998,0.881],[-49.983,0.881],[-49.989,0.867],[-49.998,0.881]]],[[[-49.994,0.949],[-49.985,0.947],[-49.994,0.947],[-49.994,0.949]]],[[[-49.914,1.03],[-49.908,1.029],[-49.908,1.023],[-49.914,1.03]]],[[[-50.151,1.906],[-50.148,1.891],[-50.157,1.894],[-50.151,1.906]]],[[[-50.168,1.915],[-50.163,1.916],[-50.164,1.915],[-50.168,1.915]]],[[[-50.178,1.917],[-50.17,1.911],[-50.177,1.913],[-50.178,1.917]]],[[[-50.402,2.121],[-50.312,1.953],[-50.427,1.867],[-50.523,2.007],[-50.402,2.121]]],[[[-50.509,2.1],[-50.436,2.172],[-50.417,2.118],[-50.509,2.1]]],[[[-50.823,2.528],[-50.828,2.519],[-50.832,2.52],[-50.823,2.528]]],[[[-51.288,4.254],[-51.282,4.252],[-51.282,4.248],[-51.288,4.254]]],[[[-51.517,4.442],[-51.214,4.148],[-51.18,3.816],[-51.076,3.892],[-51.042,3.13],[-50.835,2.517],[-50.771,2.456],[-50.689,2.135],[-50.46,1.815],[-49.927,1.701],[-49.867,1.19],[-50.052,0.922],[-50.07,0.698],[-50.398,0.633],[-50.668,0.185],[-51.216,-0.119],[-51.679,-0.785],[-51.704,-1.068],[-52.07,-1.236],[-52.427,-1.051],[-52.523,-0.589],[-52.934,-0.14],[-53.175,0.382],[-53.106,0.684],[-53.411,0.929],[-53.426,1.243],[-54.086,1.488],[-54.309,1.741],[-54.745,1.776],[-54.876,2.427],[-54.114,2.129],[-53.784,2.366],[-52.905,2.191],[-52.555,2.523],[-52.347,3.135],[-51.517,4.442]]]]}},{"type":"Feature","id":"AM","properties":{"name":"AM","sigla":"AM","uf":"AM"},"geometry":{"type":"MultiPolygon","coordinates":[[[[-53.625,-26.885],[-53.549,-27.176],[-53.83,-27.171],[-53.794,-27.045],[-53.625,-26.885]]],[[[-67.407,2.246],[-67.097,1.733],[-67.088,1.167],[-66.857,1.23],[-66.319,0.755],[-65.586,1.009],[-65.541,0.649],[-65.103,1.157],[-64.747,1.225],[-64.397,1.527],[-64.338,1.363],[-63.995,1.98],[-63.141,2.172],[-62.706,1.94],[-62.805,1.591],[-62.446,0.977],[-62.533,0.509],[-62.188,-0.331],[-62.291,-0.647],[-62.51,-0.759],[-61.897,-1.395],[-61.475,-1.579],[-61.619,-1.395],[-61.585,-0.937],[-61.217,-0.5],[-60.921,-0.555],[-60.668,-0.895],[-60.31,-0.725],[-60.4,-0.51],[-60.038,0.263],[-58.895,0.264],[-58.872,-0.343],[-58.323,-1.143],[-58.163,-1.23],[-58.017,-1.106],[-57.96,-1.402],[-57.165,-1.721],[-56.679,-2.213],[-56.099,-2.027],[-56.466,-2.423],[-58.478,-6.7],[-58.137,-7.356],[-58.383,-7.839],[-58.395,-8.78],[-61.585,-8.799],[-61.713,-8.688],[-61.985,-8.879],[-62.845,-7.987],[-63.621,-7.969],[-63.773,-8.321],[-63.944,-8.331],[-64.149,-8.959],[-64.839,-8.994],[-65.098,-9.433],[-65.247,-9.258],[-65.792,-9.586],[-65.97,-9.413],[-66.409,-9.407],[-66.806,-9.815],[-70.37,-8.141],[-72.659,-7.625],[-73.796,-7.114],[-73.638,-6.754],[-73.132,-6.507],[-73.236,-6.032],[-72.821,-5.103],[-71.907,-4.515],[-70.937,-4.384],[-70.645,-4.128],[-69.956,-4.385],[-69.368,-1.334],[-69.593,-0.517],[-70.068,-0.135],[-70.037,0.553],[-69.468,0.734],[-69.112,0.643],[-69.257,1.026],[-69.854,1.07],[-69.855,1.715],[-68.129,1.732],[-68.29,1.841],[-68.219,2.007],[-67.942,1.831],[-67.407,2.246]]]]}},{"type":"Feature","id":"BA","properties":{"name":"BA","sigla":"BA","uf":"BA"},"geometry":{"type":"MultiPolygon","coordinates":[[[[-38.702,-17.979],[-38.696,-17.981],[-38.702,-17.981],[-38.702,-17.979]]],[[[-38.712,-17.97],[-38.708,-17.972],[-38.712,-17.972],[-38.712,-17.97]]],[[[-39.214,-17.973],[-39.208,-17.973],[-39.2,-17.977],[-39.214,-17.973]]],[[[-39.205,-17.966],[-39.207,-17.965],[-39.205,-17.964],[-39.205,-17.966]]],[[[-38.713,-17.966],[-38.708,-17.966],[-38.708,-17.968],[-38.713,-17.966]]],[[[-38.706,-17.965],[-38.692,-17.963],[-38.691,-17.967],[-38.706,-17.965]]],[[[-38.694,-17.96],[-38.692,-17.961],[-38.693,-17.962],[-38.694,-17.96]]],[[[-39.311,-17.813],[-39.312,-17.812],[-39.311,-17.812],[-39.311,-17.813]]],[[[-39.202,-17.755],[-39.182,-17.749],[-39.2,-17.759],[-39.202,-17.755]]],[[[-39.298,-17.712],[-39.283,-17.717],[-39.3,-17.717],[-39.298,-17.712]]],[[[-39.18,-17.083],[-39.178,-17.081],[-39.178,-17.083],[-39.18,-17.083]]],[[[-39.0,-17.0],[-39.0,-17.0],[-39.0,-17.0],[-39.0,-17.0]]],[[[-39.014,-16.264],[-39.016,-16.269],[-39.017,-16.269],[-39.014,-16.264]]],[[[-39.018,-16.259],[-39.015,-16.259],[-39.017,-16.26],[-39.018,-16.259]]],[[[-39.015,-16.255],[-39.01,-16.254],[-39.013,-16.26],[-39.015,-16.255]]],[[[-38.863,-15.842],[-38.851,-15.85],[-38.867,-15.848],[-38.863,-15.842]]],[[[-38.925,-15.715],[-38.924,-15.718],[-38.925,-15.718],[-38.925,-15.715]]],[[[-39.002,-15.3],[-38.994,-15.302],[-38.995,-15.306],[-39.002,-15.3]]],[[[-39.059,-14.77],[-39.057,-14.769],[-39.057,-14.771],[-39.059,-14.77]]],[[[-39.004,-14.026],[-38.993,-14.022],[-38.997,-14.03],[-39.004,-14.026]]],[[[-38.998,-14.011],[-38.995,-14.013],[-38.998,-14.015],[-38.998,-14.011]]],[[[-38.997,-14.009],[-38.984,-14.008],[-38.989,-14.015],[-38.997,-14.009]]],[[[-38.97,-13.978],[-38.967,-13.974],[-38.967,-13.976],[-38.97,-13.978]]],[[[-39.001,-13.965],[-38.999,-13.966],[-39.0,-13.967],[-39.001,-13.965]]],[[[-39.079,-13.938],[-39.071,-13.938],[-39.074,-13.943],[-39.079,-13.938]]],[[[-38.991,-13.938],[-38.992,-13.934],[-38.987,-13.937],[-38.991,-13.938]]],[[[-39.047,-13.933],[-39.044,-13.934],[-39.047,-13.936],[-39.047,-13.933]]],[[[-39.073,-13.931],[-39.075,-13.932],[-39.073,-13.929],[-39.073,-13.931]]],[[[-39.075,-13.935],[-39.065,-13.935],[-39.068,-13.938],[-39.075,-13.935]]],[[[-39.027,-13.916],[-39.008,-13.94],[-39.016,-13.942],[-39.027,-13.916]]],[[[-39.08,-13.896],[-39.073,-13.898],[-39.078,-13.903],[-39.08,-13.896]]],[[[-39.076,-13.892],[-39.072,-13.893],[-39.074,-13.895],[-39.076,-13.892]]],[[[-39.11,-13.892],[-39.108,-13.891],[-39.108,-13.892],[-39.11,-13.892]]],[[[-39.072,-13.91],[-39.055,-13.89],[-39.04,-13.905],[-39.072,-13.91]]],[[[-38.943,-13.836],[-38.938,-13.836],[-38.938,-13.839],[-38.943,-13.836]]],[[[-39.095,-13.766],[-39.09,-13.769],[-39.096,-13.768],[-39.095,-13.766]]],[[[-39.108,-13.765],[-39.105,-13.765],[-39.106,-13.766],[-39.108,-13.765]]],[[[-39.104,-13.763],[-39.1,-13.758],[-39.097,-13.767],[-39.105,-13.768],[-39.104,-13.763]]],[[[-39.095,-13.764],[-39.075,-13.762],[-39.074,-13.769],[-39.095,-13.764]]],[[[-39.145,-13.744],[-39.14,-13.747],[-39.145,-13.75],[-39.145,-13.744]]],[[[-39.075,-13.732],[-39.072,-13.734],[-39.074,-13.734],[-39.075,-13.732]]],[[[-39.129,-13.723],[-39.127,-13.726],[-39.129,-13.726],[-39.129,-13.723]]],[[[-39.126,-13.721],[-39.118,-13.723],[-39.12,-13.726],[-39.126,-13.721]]],[[[-39.134,-13.72],[-39.132,-13.718],[-39.132,-13.72],[-39.134,-13.72]]],[[[-39.131,-13.717],[-39.127,-13.717],[-39.13,-13.719],[-39.131,-13.717]]],[[[-38.966,-13.675],[-38.963,-13.677],[-38.964,-13.678],[-38.966,-13.675]]],[[[-39.096,-13.566],[-39.095,-13.563],[-39.095,-13.567],[-39.096,-13.566]]],[[[-39.059,-13.479],[-39.056,-13.481],[-39.06,-13.482],[-39.059,-13.479]]],[[[-39.062,-13.475],[-39.06,-13.48],[-39.062,-13.48],[-39.062,-13.475]]],[[[-39.053,-13.431],[-39.042,-13.44],[-39.045,-13.443],[-39.053,-13.431]]],[[[-38.998,-13.378],[-38.991,-13.382],[-38.998,-13.38],[-38.998,-13.378]]],[[[-38.993,-13.378],[-38.988,-13.379],[-38.986,-13.383],[-38.993,-13.378]]],[[[-38.812,-13.042],[-38.791,-13.042],[-38.813,-13.056],[-38.812,-13.042]]],[[[-38.778,-13.017],[-38.753,-13.028],[-38.787,-13.038],[-38.778,-13.017]]],[[[-38.751,-12.999],[-38.742,-13.004],[-38.749,-13.004],[-38.751,-12.999]]],[[[-38.767,-12.996],[-38.763,-12.999],[-38.767,-12.998],[-38.767,-12.996]]],[[[-38.744,-12.989],[-38.751,-12.995],[-38.746,-12.988],[-38.744,-12.989]]],[[[-38.747,-12.98],[-38.745,-12.977],[-38.745,-12.981],[-38.747,-12.98]]],[[[-38.742,-12.902],[-38.737,-12.9],[-38.741,-12.904],[-38.742,-12.902]]],[[[-38.731,-12.893],[-38.728,-12.895],[-38.732,-12.896],[-38.731,-12.893]]],[[[-38.735,-12.887],[-38.728,-12.889],[-38.736,-12.893],[-38.735,-12.887]]],[[[-38.668,-12.96],[-38.615,-12.986],[-38.79,-13.132],[-38.668,-12.96]]],[[[-38.278,-12.877],[-38.278,-12.879],[-38.278,-12.879],[-38.278,-12.877]]],[[[-38.71,-12.857],[-38.707,-12.858],[-38.707,-12.858],[-38.71,-12.857]]],[[[-38.855,-12.849],[-38.852,-12.85],[-38.852,-12.85],[-38.855,-12.849]]],[[[-38.836,-12.83],[-38.834,-12.832],[-38.837,-12.832],[-38.836,-12.83]]],[[[-38.839,-12.837],[-38.82,-12.845],[-38.822,-12.848],[-38.839,-12.837]]],[[[-38.921,-12.83],[-38.917,-12.832],[-38.921,-12.836],[-38.921,-12.83]]],[[[-38.915,-12.825],[-38.917,-12.829],[-38.915,-12.823],[-38.915,-12.825]]],[[[-38.925,-12.811],[-38.921,-12.812],[-38.925,-12.815],[-38.925,-12.811]]],[[[-38.913,-12.81],[-38.911,-12.812],[-38.913,-12.815],[-38.913,-12.81]]],[[[-38.923,-12.818],[-38.914,-12.817],[-38.924,-12.825],[-38.923,-12.818]]],[[[-38.875,-12.772],[-38.872,-12.775],[-38.875,-12.776],[-38.875,-12.772]]],[[[-38.654,-12.764],[-38.651,-12.767],[-38.655,-12.767],[-38.654,-12.764]]],[[[-38.636,-12.77],[-38.623,-12.788],[-38.642,-12.815],[-38.658,-12.777],[-38.636,-12.77]]],[[[-38.646,-12.76],[-38.636,-12.763],[-38.637,-12.765],[-38.646,-12.76]]],[[[-38.621,-12.754],[-38.618,-12.755],[-38.62,-12.756],[-38.621,-12.754]]],[[[-38.625,-12.755],[-38.622,-12.752],[-38.622,-12.754],[-38.625,-12.755]]],[[[-38.638,-12.748],[-38.635,-12.748],[-38.636,-12.748],[-38.638,-12.748]]],[[[-38.516,-12.742],[-38.513,-12.744],[-38.516,-12.745],[-38.516,-12.742]]],[[[-38.553,-12.758],[-38.516,-12.752],[-38.523,-12.8],[-38.553,-12.758]]],[[[-38.647,-12.745],[-38.64,-12.739],[-38.641,-12.75],[-38.647,-12.745]]],[[[-38.636,-12.728],[-38.631,-12.733],[-38.634,-12.739],[-38.636,-12.728]]],[[[-38.624,-12.751],[-38.608,-12.728],[-38.606,-12.735],[-38.597,-12.741],[-38.624,-12.751]]],[[[-38.632,-12.727],[-38.635,-12.711],[-38.627,-12.713],[-38.632,-12.727]]],[[[-38.63,-12.701],[-38.623,-12.708],[-38.636,-12.705],[-38.637,-12.702],[-38.63,-12.701]]],[[[-38.71,-12.687],[-38.707,-12.688],[-38.707,-12.689],[-38.71,-12.687]]],[[[-38.726,-12.673],[-38.724,-12.675],[-38.725,-12.676],[-38.726,-12.673]]],[[[-38.732,-12.677],[-38.726,-12.678],[-38.727,-12.68],[-38.732,-12.677]]],[[[-38.728,-12.67],[-38.725,-12.669],[-38.726,-12.672],[-38.728,-12.67]]],[[[-38.71,-12.667],[-38.707,-12.667],[-38.707,-12.669],[-38.71,-12.667]]],[[[-38.709,-12.681],[-38.711,-12.671],[-38.704,-12.672],[-38.709,-12.681]]],[[[-38.73,-12.663],[-38.729,-12.661],[-38.726,-12.662],[-38.73,-12.663]]],[[[-38.705,-12.626],[-38.703,-12.623],[-38.702,-12.628],[-38.705,-12.626]]],[[[-38.702,-12.597],[-38.701,-12.612],[-38.707,-12.617],[-38.706,-12.626],[-38.682,-12.645],[-38.691,-12.668],[-38.715,-12.644],[-38.702,-12.597]]],[[[-37.422,-11.508],[-37.417,-11.507],[-37.422,-11.51],[-37.422,-11.508]]],[[[-37.413,-11.5],[-37.402,-11.498],[-37.415,-11.503],[-37.413,-11.5]]],[[[-37.349,-11.457],[-38.275,-12.874],[-38.277,-12.874],[-38.282,-12.879],[-38.316,-12.927],[-38.353,-12.957],[-38.533,-13.012],[-38.425,-12.77],[-38.695,-12.58],[-38.812,-12.842],[-38.855,-12.654],[-38.916,-12.738],[-38.931,-12.861],[-38.883,-12.777],[-38.853,-12.896],[-38.794,-12.84],[-38.72,-12.877],[-38.755,-12.9],[-38.772,-12.989],[-38.786,-12.992],[-38.792,-13.025],[-38.808,-13.031],[-38.814,-13.042],[-38.815,-13.056],[-38.845,-13.049],[-38.804,-13.142],[-38.953,-13.249],[-38.955,-13.378],[-39.042,-13.338],[-39.036,-13.363],[-39.072,-13.441],[-39.072,-13.485],[-39.09,-13.513],[-39.098,-13.565],[-39.085,-13.589],[-39.092,-13.535],[-39.04,-13.48],[-39.032,-13.392],[-38.915,-13.373],[-38.891,-13.653],[-38.971,-13.672],[-38.99,-13.843],[-39.044,-13.811],[-39.066,-13.762],[-39.052,-13.74],[-39.07,-13.735],[-39.057,-13.707],[-39.063,-13.701],[-39.076,-13.731],[-39.066,-13.753],[-39.122,-13.701],[-39.138,-13.713],[-39.151,-13.758],[-39.004,-13.854],[-39.124,-13.887],[-39.084,-14.009],[-38.978,-14.054],[-38.928,-13.908],[-39.068,-14.739],[-39.065,-14.758],[-39.059,-14.772],[-39.054,-14.779],[-39.025,-14.769],[-39.003,-15.301],[-38.925,-15.704],[-38.938,-15.682],[-38.944,-15.684],[-38.921,-15.737],[-38.912,-15.716],[-38.873,-15.851],[-38.856,-15.857],[-39.031,-16.259],[-39.009,-16.375],[-39.088,-16.444],[-39.214,-17.169],[-39.137,-17.691],[-39.289,-17.658],[-39.35,-17.717],[-39.28,-17.726],[-39.313,-17.737],[-39.328,-17.773],[-39.311,-17.738],[-39.275,-17.749],[-39.287,-17.749],[-39.291,-17.765],[-39.288,-17.768],[-39.279,-17.768],[-39.286,-17.782],[-39.298,-17.779],[-39.308,-17.781],[-39.313,-17.817],[-39.278,-17.773],[-39.278,-17.766],[-39.289,-17.766],[-39.273,-17.755],[-39.274,-17.746],[-39.281,-17.739],[-39.28,-17.732],[-39.206,-17.772],[-39.418,-17.864],[-39.67,-18.35],[-40.222,-17.98],[-40.224,-17.734],[-40.623,-17.406],[-40.491,-16.884],[-40.282,-16.901],[-40.275,-16.574],[-39.857,-16.114],[-40.231,-15.804],[-40.818,-15.648],[-41.331,-15.745],[-41.356,-15.5],[-41.801,-15.101],[-42.092,-15.187],[-43.176,-14.651],[-43.531,-14.815],[-43.883,-14.653],[-43.783,-14.339],[-44.215,-14.233],[-46.077,-15.265],[-45.907,-14.353],[-46.266,-14.098],[-46.243,-13.431],[-46.042,-13.273],[-46.316,-13.303],[-46.323,-13.098],[-46.114,-12.919],[-46.305,-12.95],[-46.154,-12.483],[-46.352,-12.337],[-46.398,-12.04],[-46.171,-11.901],[-46.375,-11.869],[-46.313,-11.63],[-46.083,-11.636],[-46.479,-11.516],[-46.617,-11.289],[-46.211,-10.65],[-45.603,-10.108],[-45.248,-10.822],[-44.931,-10.929],[-44.578,-10.627],[-44.134,-10.636],[-43.662,-10.004],[-43.85,-9.548],[-43.485,-9.265],[-42.765,-9.617],[-42.208,-9.194],[-41.838,-9.242],[-41.399,-8.705],[-41.114,-8.704],[-40.667,-9.159],[-40.777,-9.454],[-40.623,-9.483],[-40.335,-9.354],[-40.251,-9.061],[-39.958,-9.049],[-39.895,-8.832],[-39.376,-8.534],[-38.669,-8.976],[-38.551,-8.823],[-38.296,-9.023],[-37.736,-10.333],[-37.859,-10.426],[-37.814,-10.691],[-38.212,-10.709],[-38.229,-10.916],[-37.671,-11.672],[-37.535,-11.701],[-37.566,-11.554],[-37.474,-11.58],[-37.349,-11.457]]]]}},{"type":"Feature","id":"CE","properties":{"name":"CE","sigla":"CE","uf":"CE"},"geometry":{"type":"MultiPolygon","coordinates":[[[[-38.475,-3.705],[-38.473,-3.702],[-38.473,-3.705],[-38.475,-3.705]]],[[[-40.838,-2.882],[-40.837,-2.886],[-40.841,-2.885],[-40.838,-2.882]]],[[[-40.004,-2.839],[-40.002,-2.84],[-40.003,-2.84],[-40.004,-2.839]]],[[[-40.005,-2.841],[-40.004,-2.841],[-40.004,-2.842],[-40.005,-2.841]]],[[[-40.667,-2.868],[-39.904,-2.874],[-38.649,-3.685],[-38.463,-3.707],[-37.252,-4.832],[-37.64,-4.926],[-38.165,-5.946],[-38.579,-6.28],[-38.765,-6.994],[-38.535,-7.294],[-38.965,-7.845],[-39.663,-7.311],[-40.548,-7.393],[-40.371,-6.803],[-40.792,-6.513],[-40.925,-5.182],[-41.249,-4.869],[-41.083,-4.19],[-41.423,-3.368],[-41.257,-3.088],[-41.321,-2.918],[-41.262,-2.885],[-40.836,-2.89],[-40.753,-2.85],[-40.667,-2.868]]]]}},{"type":"Feature","id":"DF","properties":{"name":"DF","sigla":"DF","uf":"DF"},"geometry":{"type":"Polygon","coordinates":[[[-48.2,-15.5],[-47.417,-15.5],[-47.309,-16.051],[-48.279,-16.052],[-48.2,-15.5]]]}},{"type":"Feature","id":"ES","properties":{"name":"ES","sigla":"ES","uf":"ES"},"geometry":{"type":"MultiPolygon","coordinates":[[[[-40.885,-21.163],[-40.882,-21.163],[-40.882,-21.165],[-40.885,-21.163]]],[[[-40.756,-20.927],[-40.752,-20.927],[-40.756,-20.929],[-40.756,-20.927]]],[[[-40.729,-20.856],[-40.726,-20.855],[-40.728,-20.857],[-40.729,-20.856]]],[[[-40.728,-20.849],[-40.725,-20.851],[-40.728,-20.851],[-40.728,-20.849]]],[[[-40.723,-20.843],[-40.719,-20.846],[-40.724,-20.847],[-40.723,-20.843]]],[[[-40.384,-20.615],[-40.38,-20.613],[-40.381,-20.616],[-40.384,-20.615]]],[[[-40.377,-20.611],[-40.373,-20.609],[-40.373,-20.613],[-40.377,-20.611]]],[[[-40.392,-20.597],[-40.39,-20.598],[-40.393,-20.599],[-40.392,-20.597]]],[[[-28.851,-20.497],[-28.847,-20.497],[-28.848,-20.498],[-28.851,-20.497]]],[[[-29.332,-20.525],[-29.297,-20.516],[-29.301,-20.528],[-29.332,-20.525]]],[[[-28.854,-20.474],[-28.847,-20.475],[-28.851,-20.48],[-28.854,-20.474]]],[[[-28.854,-20.469],[-28.857,-20.469],[-28.855,-20.468],[-28.854,-20.469]]],[[[-40.297,-20.38],[-40.295,-20.382],[-40.298,-20.382],[-40.297,-20.38]]],[[[-40.31,-20.324],[-40.308,-20.325],[-40.31,-20.326],[-40.31,-20.324]]],[[[-40.272,-20.321],[-40.27,-20.322],[-40.272,-20.322],[-40.272,-20.321]]],[[[-40.277,-20.307],[-40.274,-20.309],[-40.277,-20.309],[-40.277,-20.307]]],[[[-40.358,-20.303],[-40.358,-20.307],[-40.359,-20.308],[-40.358,-20.303]]],[[[-40.285,-20.301],[-40.277,-20.302],[-40.285,-20.305],[-40.285,-20.301]]],[[[-39.665,-18.341],[-39.665,-18.341],[-39.665,-18.34],[-39.665,-18.341]]],[[[-39.665,-18.34],[-39.665,-18.34],[-39.665,-18.34],[-39.665,-18.34]]],[[[-39.665,-18.34],[-39.665,-18.34],[-39.665,-18.339],[-39.665,-18.34]]],[[[-39.664,-18.339],[-39.665,-18.339],[-39.664,-18.339],[-39.664,-18.339]]],[[[-40.518,-17.894],[-39.667,-18.332],[-39.703,-19.392],[-39.811,-19.65],[-40.233,-19.91],[-40.132,-19.966],[-40.23,-20.295],[-40.31,-20.242],[-40.379,-20.278],[-40.356,-20.327],[-40.31,-20.33],[-40.266,-20.324],[-40.314,-20.392],[-40.359,-20.519],[-40.756,-20.86],[-40.959,-21.297],[-41.566,-21.183],[-41.879,-20.761],[-41.847,-20.329],[-41.382,-20.189],[-40.949,-19.473],[-41.018,-18.974],[-41.245,-18.822],[-40.937,-18.831],[-40.944,-18.688],[-41.023,-18.458],[-41.182,-18.439],[-41.052,-18.344],[-40.517,-18.487],[-40.662,-18.013],[-40.518,-17.894]]]]}},{"type":"Feature","id":"GO","properties":{"name":"GO","sigla":"GO","uf":"GO"},"geometry":{"type":"Polygon","coordinates":[[[-50.158,-12.412],[-50.293,-12.84],[-49.369,-13.275],[-49.119,-12.79],[-48.976,-12.957],[-48.847,-12.81],[-48.602,-13.063],[-48.586,-13.318],[-48.509,-13.129],[-48.442,-13.292],[-48.147,-13.152],[-48.165,-13.306],[-47.824,-13.312],[-47.679,-13.468],[-47.635,-13.105],[-47.427,-13.289],[-46.455,-12.971],[-46.418,-12.823],[-46.364,-12.991],[-46.115,-12.918],[-46.323,-13.098],[-46.279,-13.348],[-46.042,-13.273],[-46.243,-13.431],[-46.266,-14.098],[-45.907,-14.358],[-46.088,-14.936],[-46.503,-14.704],[-46.503,-15.053],[-46.923,-15.055],[-46.811,-15.885],[-47.319,-16.037],[-47.417,-15.5],[-48.2,-15.5],[-48.279,-16.052],[-47.306,-16.056],[-47.459,-16.504],[-47.132,-17.01],[-47.541,-17.454],[-47.267,-17.609],[-47.283,-18.058],[-47.955,-18.5],[-48.262,-18.332],[-48.937,-18.306],[-49.005,-18.537],[-49.395,-18.646],[-49.536,-18.494],[-50.295,-18.692],[-50.842,-19.499],[-52.449,-18.691],[-52.917,-18.639],[-52.759,-18.349],[-53.101,-18.311],[-53.246,-17.527],[-53.011,-16.858],[-52.626,-16.533],[-52.674,-16.294],[-52.253,-15.893],[-51.88,-15.825],[-51.536,-15.07],[-51.084,-14.916],[-50.834,-14.09],[-50.872,-13.733],[-50.478,-12.71],[-50.158,-12.412]]]}},{"type":"Feature","id":"MA","properties":{"name":"MA","sigla":"MA","uf":"MA"},"geometry":{"type":"MultiPolygon","coordinates":[[[[-42.124,-2.809],[-42.117,-2.811],[-42.118,-2.813],[-42.124,-2.809]]],[[[-42.049,-2.784],[-42.045,-2.784],[-42.046,-2.785],[-42.049,-2.784]]],[[[-42.044,-2.787],[-42.04,-2.805],[-42.06,-2.801],[-42.077,-2.801],[-42.07,-2.779],[-42.044,-2.787]]],[[[-42.197,-2.792],[-42.18,-2.787],[-42.18,-2.796],[-42.197,-2.792]]],[[[-42.024,-2.773],[-42.017,-2.776],[-42.022,-2.778],[-42.024,-2.773]]],[[[-42.035,-2.768],[-42.032,-2.773],[-42.037,-2.778],[-42.035,-2.768]]],[[[-42.242,-2.769],[-42.231,-2.769],[-42.228,-2.785],[-42.242,-2.769]]],[[[-42.009,-2.777],[-42.0,-2.772],[-42.0,-2.783],[-42.009,-2.777]]],[[[-42.135,-2.781],[-42.114,-2.809],[-42.125,-2.797],[-42.178,-2.797],[-42.155,-2.771],[-42.135,-2.781]]],[[[-42.151,-2.768],[-42.129,-2.765],[-42.13,-2.776],[-42.151,-2.768]]],[[[-44.097,-2.751],[-44.094,-2.75],[-44.095,-2.751],[-44.097,-2.751]]],[[[-44.094,-2.748],[-44.092,-2.746],[-44.092,-2.749],[-44.094,-2.748]]],[[[-41.816,-2.739],[-41.814,-2.737],[-41.815,-2.739],[-41.816,-2.739]]],[[[-44.074,-2.737],[-44.071,-2.738],[-44.074,-2.746],[-44.074,-2.737]]],[[[-42.431,-2.732],[-42.425,-2.734],[-42.425,-2.735],[-42.431,-2.732]]],[[[-41.813,-2.737],[-41.808,-2.732],[-41.807,-2.736],[-41.813,-2.737]]],[[[-42.043,-2.719],[-42.041,-2.713],[-42.042,-2.719],[-42.043,-2.719]]],[[[-42.253,-2.737],[-42.206,-2.713],[-42.149,-2.726],[-42.121,-2.755],[-42.253,-2.737]]],[[[-42.215,-2.684],[-42.061,-2.69],[-42.026,-2.76],[-42.082,-2.777],[-42.1,-2.746],[-42.077,-2.754],[-42.077,-2.741],[-42.215,-2.684]]],[[[-42.702,-2.633],[-42.702,-2.638],[-42.703,-2.639],[-42.702,-2.633]]],[[[-42.705,-2.584],[-42.703,-2.591],[-42.707,-2.589],[-42.716,-2.588],[-42.705,-2.584]]],[[[-43.882,-2.582],[-43.874,-2.582],[-43.88,-2.586],[-43.882,-2.582]]],[[[-43.896,-2.588],[-43.882,-2.586],[-43.887,-2.597],[-43.896,-2.588]]],[[[-42.737,-2.575],[-42.734,-2.576],[-42.736,-2.577],[-42.737,-2.575]]],[[[-43.887,-2.572],[-43.887,-2.577],[-43.888,-2.578],[-43.887,-2.572]]],[[[-42.723,-2.583],[-42.712,-2.571],[-42.711,-2.575],[-42.723,-2.583]]],[[[-42.73,-2.565],[-42.718,-2.562],[-42.722,-2.569],[-42.73,-2.565]]],[[[-42.763,-2.556],[-42.764,-2.562],[-42.768,-2.56],[-42.763,-2.556]]],[[[-43.701,-2.53],[-43.696,-2.533],[-43.702,-2.534],[-43.706,-2.539],[-43.701,-2.53]]],[[[-43.789,-2.532],[-43.785,-2.532],[-43.789,-2.54],[-43.789,-2.532]]],[[[-43.883,-2.582],[-43.886,-2.559],[-43.867,-2.562],[-43.883,-2.582]]],[[[-43.619,-2.527],[-43.617,-2.529],[-43.62,-2.532],[-43.619,-2.527]]],[[[-43.69,-2.537],[-43.697,-2.523],[-43.69,-2.52],[-43.686,-2.525],[-43.69,-2.537]]],[[[-43.7,-2.52],[-43.695,-2.522],[-43.7,-2.521],[-43.7,-2.52]]],[[[-43.617,-2.518],[-43.615,-2.518],[-43.615,-2.52],[-43.617,-2.518]]],[[[-43.767,-2.509],[-43.772,-2.512],[-43.767,-2.508],[-43.767,-2.509]]],[[[-43.68,-2.505],[-43.679,-2.508],[-43.68,-2.509],[-43.68,-2.505]]],[[[-43.45,-2.507],[-43.444,-2.518],[-43.45,-2.532],[-43.45,-2.507]]],[[[-43.753,-2.499],[-43.749,-2.5],[-43.751,-2.504],[-43.753,-2.499]]],[[[-43.485,-2.523],[-43.477,-2.488],[-43.474,-2.524],[-43.485,-2.523]]],[[[-43.474,-2.474],[-43.464,-2.482],[-43.465,-2.485],[-43.474,-2.474]]],[[[-44.073,-2.462],[-44.063,-2.467],[-44.081,-2.461],[-44.073,-2.462]]],[[[-43.604,-2.49],[-43.573,-2.48],[-43.61,-2.507],[-43.604,-2.49]]],[[[-44.072,-2.447],[-44.065,-2.443],[-44.069,-2.451],[-44.074,-2.451],[-44.072,-2.447]]],[[[-43.398,-2.44],[-43.397,-2.439],[-43.395,-2.44],[-43.398,-2.44]]],[[[-43.863,-2.44],[-43.853,-2.437],[-43.858,-2.445],[-43.863,-2.44]]],[[[-44.128,-2.428],[-44.13,-2.428],[-44.127,-2.427],[-44.128,-2.428]]],[[[-43.464,-2.417],[-43.428,-2.429],[-43.425,-2.437],[-43.464,-2.417]]],[[[-43.741,-2.433],[-43.747,-2.416],[-43.735,-2.427],[-43.741,-2.433]]],[[[-43.85,-2.41],[-43.824,-2.473],[-43.787,-2.419],[-43.743,-2.44],[-43.78,-2.473],[-43.791,-2.547],[-43.819,-2.543],[-43.833,-2.55],[-43.85,-2.41]]],[[[-43.527,-2.372],[-43.506,-2.405],[-43.536,-2.407],[-43.527,-2.372]]],[[[-43.789,-2.379],[-43.754,-2.384],[-43.789,-2.416],[-43.789,-2.379]]],[[[-43.631,-2.365],[-43.636,-2.378],[-43.638,-2.379],[-43.631,-2.365]]],[[[-43.611,-2.377],[-43.561,-2.423],[-43.601,-2.412],[-43.611,-2.377]]],[[[-43.731,-2.306],[-43.726,-2.306],[-43.731,-2.31],[-43.731,-2.306]]],[[[-43.622,-2.29],[-43.616,-2.292],[-43.623,-2.292],[-43.622,-2.29]]],[[[-43.63,-2.289],[-43.626,-2.29],[-43.632,-2.291],[-43.63,-2.289]]],[[[-43.644,-2.285],[-43.64,-2.292],[-43.656,-2.301],[-43.644,-2.285]]],[[[-43.612,-2.284],[-43.597,-2.28],[-43.598,-2.293],[-43.612,-2.284]]],[[[-43.624,-2.251],[-43.602,-2.27],[-43.64,-2.276],[-43.677,-2.3],[-43.684,-2.344],[-43.639,-2.402],[-43.744,-2.416],[-43.716,-2.288],[-43.624,-2.251]]],[[[-44.469,-2.071],[-44.466,-2.073],[-44.472,-2.075],[-44.469,-2.071]]],[[[-44.552,-1.885],[-44.551,-1.887],[-44.552,-1.887],[-44.552,-1.885]]],[[[-44.558,-1.881],[-44.547,-1.878],[-44.55,-1.88],[-44.558,-1.881]]],[[[-44.555,-1.873],[-44.552,-1.877],[-44.556,-1.877],[-44.555,-1.873]]],[[[-44.524,-1.849],[-44.522,-1.848],[-44.522,-1.852],[-44.524,-1.849]]],[[[-44.562,-1.826],[-44.56,-1.827],[-44.56,-1.829],[-44.562,-1.826]]],[[[-44.558,-1.825],[-44.557,-1.826],[-44.558,-1.828],[-44.558,-1.825]]],[[[-44.598,-1.795],[-44.596,-1.797],[-44.598,-1.798],[-44.598,-1.795]]],[[[-44.586,-1.792],[-44.587,-1.798],[-44.592,-1.797],[-44.586,-1.792]]],[[[-44.597,-1.791],[-44.595,-1.789],[-44.596,-1.791],[-44.597,-1.791]]],[[[-44.595,-1.786],[-44.593,-1.787],[-44.594,-1.788],[-44.595,-1.786]]],[[[-44.592,-1.786],[-44.59,-1.782],[-44.589,-1.783],[-44.592,-1.786]]],[[[-44.754,-1.681],[-44.74,-1.698],[-44.758,-1.69],[-44.754,-1.681]]],[[[-44.748,-1.678],[-44.746,-1.68],[-44.75,-1.68],[-44.748,-1.678]]],[[[-44.742,-1.664],[-44.728,-1.675],[-44.744,-1.668],[-44.742,-1.664]]],[[[-45.276,-1.654],[-45.236,-1.671],[-45.277,-1.688],[-45.271,-1.714],[-45.276,-1.723],[-45.305,-1.653],[-45.276,-1.654]]],[[[-45.316,-1.614],[-45.264,-1.626],[-45.309,-1.646],[-45.332,-1.736],[-45.316,-1.614]]],[[[-44.76,-1.583],[-44.754,-1.582],[-44.755,-1.585],[-44.76,-1.583]]],[[[-44.785,-1.575],[-44.781,-1.577],[-44.785,-1.577],[-44.785,-1.575]]],[[[-44.742,-1.572],[-44.74,-1.572],[-44.743,-1.573],[-44.742,-1.572]]],[[[-44.74,-1.567],[-44.754,-1.578],[-44.758,-1.579],[-44.74,-1.567]]],[[[-44.737,-1.566],[-44.737,-1.571],[-44.74,-1.571],[-44.737,-1.566]]],[[[-44.787,-1.564],[-44.788,-1.566],[-44.789,-1.566],[-44.787,-1.564]]],[[[-44.781,-1.562],[-44.782,-1.56],[-44.78,-1.56],[-44.781,-1.562]]],[[[-44.708,-1.548],[-44.703,-1.568],[-44.727,-1.599],[-44.728,-1.618],[-44.739,-1.619],[-44.708,-1.548]]],[[[-44.871,-1.492],[-44.865,-1.49],[-44.866,-1.493],[-44.871,-1.492]]],[[[-44.835,-1.535],[-44.775,-1.49],[-44.794,-1.513],[-44.797,-1.524],[-44.819,-1.53],[-44.796,-1.548],[-44.828,-1.556],[-44.835,-1.535]]],[[[-44.958,-1.473],[-44.948,-1.483],[-44.961,-1.485],[-44.965,-1.489],[-44.965,-1.497],[-44.955,-1.505],[-44.964,-1.513],[-44.975,-1.488],[-44.958,-1.473]]],[[[-45.143,-1.47],[-45.14,-1.482],[-45.142,-1.482],[-45.143,-1.47]]],[[[-45.132,-1.471],[-45.114,-1.469],[-45.112,-1.471],[-45.132,-1.471]]],[[[-44.765,-1.459],[-44.74,-1.516],[-44.791,-1.527],[-44.772,-1.485],[-44.793,-1.468],[-44.765,-1.459]]],[[[-44.739,-1.512],[-44.751,-1.466],[-44.742,-1.48],[-44.739,-1.512]]],[[[-45.162,-1.452],[-45.16,-1.457],[-45.161,-1.457],[-45.162,-1.452]]],[[[-45.097,-1.451],[-45.095,-1.45],[-45.092,-1.45],[-45.093,-1.451],[-45.097,-1.451]]],[[[-45.085,-1.439],[-45.067,-1.447],[-45.073,-1.461],[-45.085,-1.439]]],[[[-45.083,-1.425],[-45.082,-1.426],[-45.084,-1.428],[-45.083,-1.425]]],[[[-45.097,-1.435],[-45.085,-1.428],[-45.09,-1.445],[-45.097,-1.435]]],[[[-45.133,-1.458],[-45.102,-1.464],[-45.132,-1.468],[-45.133,-1.458]]],[[[-44.86,-1.41],[-44.83,-1.425],[-44.843,-1.488],[-44.897,-1.477],[-44.909,-1.605],[-44.949,-1.586],[-44.953,-1.586],[-44.959,-1.593],[-44.966,-1.593],[-44.971,-1.599],[-44.86,-1.41]]],[[[-45.42,-1.408],[-45.404,-1.409],[-45.414,-1.421],[-45.42,-1.408]]],[[[-45.379,-1.393],[-45.37,-1.392],[-45.373,-1.397],[-45.379,-1.393]]],[[[-45.148,-1.382],[-45.145,-1.383],[-45.15,-1.387],[-45.148,-1.382]]],[[[-44.948,-1.377],[-44.946,-1.379],[-44.948,-1.38],[-44.948,-1.377]]],[[[-45.103,-1.42],[-45.07,-1.379],[-45.1,-1.434],[-45.103,-1.42]]],[[[-45.659,-1.371],[-45.657,-1.373],[-45.66,-1.373],[-45.659,-1.371]]],[[[-45.125,-1.386],[-45.095,-1.382],[-45.108,-1.413],[-45.125,-1.386]]],[[[-45.048,-1.395],[-45.038,-1.386],[-45.044,-1.401],[-45.048,-1.395]]],[[[-45.658,-1.364],[-45.649,-1.368],[-45.662,-1.367],[-45.658,-1.364]]],[[[-45.352,-1.346],[-45.343,-1.354],[-45.353,-1.354],[-45.36,-1.36],[-45.352,-1.346]]],[[[-45.565,-1.348],[-45.562,-1.347],[-45.562,-1.35],[-45.565,-1.348]]],[[[-45.5,-1.353],[-45.495,-1.35],[-45.499,-1.358],[-45.5,-1.353]]],[[[-45.526,-1.339],[-45.525,-1.341],[-45.526,-1.341],[-45.526,-1.339]]],[[[-45.492,-1.344],[-45.487,-1.342],[-45.492,-1.348],[-45.492,-1.344]]],[[[-45.551,-1.34],[-45.55,-1.336],[-45.544,-1.337],[-45.551,-1.34]]],[[[-45.632,-1.339],[-45.628,-1.339],[-45.633,-1.344],[-45.632,-1.339]]],[[[-45.495,-1.336],[-45.498,-1.339],[-45.494,-1.332],[-45.495,-1.336]]],[[[-44.897,-1.337],[-44.895,-1.333],[-44.895,-1.337],[-44.897,-1.337]]],[[[-45.565,-1.33],[-45.563,-1.33],[-45.565,-1.331],[-45.565,-1.33]]],[[[-44.882,-1.323],[-44.88,-1.325],[-44.883,-1.325],[-44.882,-1.323]]],[[[-44.892,-1.333],[-44.879,-1.332],[-44.892,-1.35],[-44.892,-1.333]]],[[[-45.631,-1.332],[-45.642,-1.324],[-45.639,-1.318],[-45.631,-1.332]]],[[[-44.884,-1.319],[-44.868,-1.324],[-44.879,-1.33],[-44.873,-1.323],[-44.884,-1.319]]],[[[-45.56,-1.314],[-45.538,-1.328],[-45.561,-1.33],[-45.56,-1.314]]],[[[-45.704,-1.306],[-45.687,-1.303],[-45.684,-1.319],[-45.704,-1.306]]],[[[-45.562,-1.294],[-45.546,-1.3],[-45.559,-1.309],[-45.562,-1.294]]],[[[-45.661,-1.276],[-45.654,-1.274],[-45.655,-1.277],[-45.661,-1.276]]],[[[-45.568,-1.285],[-45.546,-1.29],[-45.569,-1.289],[-45.568,-1.285]]],[[[-44.946,-1.276],[-44.875,-1.296],[-44.893,-1.33],[-44.928,-1.319],[-44.917,-1.306],[-44.946,-1.276]]],[[[-45.005,-1.401],[-44.941,-1.344],[-44.913,-1.335],[-44.905,-1.339],[-45.005,-1.401]]],[[[-44.888,-1.281],[-44.905,-1.272],[-44.879,-1.283],[-44.871,-1.29],[-44.868,-1.303],[-44.888,-1.281]]],[[[-45.576,-1.268],[-45.565,-1.26],[-45.574,-1.274],[-45.576,-1.268]]],[[[-45.869,-1.26],[-45.863,-1.263],[-45.869,-1.262],[-45.869,-1.26]]],[[[-45.649,-1.248],[-45.646,-1.248],[-45.649,-1.249],[-45.649,-1.248]]],[[[-45.659,-1.248],[-45.648,-1.244],[-45.656,-1.255],[-45.659,-1.248]]],[[[-45.651,-1.23],[-45.649,-1.233],[-45.651,-1.235],[-45.651,-1.23]]],[[[-45.803,-1.228],[-45.798,-1.226],[-45.799,-1.229],[-45.803,-1.228]]],[[[-45.882,-1.219],[-45.87,-1.219],[-45.885,-1.223],[-45.882,-1.219]]],[[[-45.873,-1.21],[-45.869,-1.21],[-45.873,-1.211],[-45.873,-1.21]]],[[[-45.957,-1.222],[-45.945,-1.21],[-45.955,-1.235],[-45.957,-1.222]]],[[[-45.683,-1.201],[-45.678,-1.198],[-45.678,-1.202],[-45.683,-1.201]]],[[[-45.676,-1.196],[-45.673,-1.198],[-45.674,-1.198],[-45.676,-1.196]]],[[[-45.578,-1.196],[-45.534,-1.222],[-45.595,-1.242],[-45.578,-1.196]]],[[[-45.711,-1.228],[-45.667,-1.243],[-45.692,-1.266],[-45.711,-1.228]]],[[[-45.867,-1.192],[-45.865,-1.198],[-45.87,-1.202],[-45.867,-1.192]]],[[[-45.774,-1.192],[-45.768,-1.192],[-45.77,-1.196],[-45.774,-1.192]]],[[[-45.683,-1.193],[-45.68,-1.192],[-45.681,-1.194],[-45.683,-1.193]]],[[[-45.809,-1.2],[-45.782,-1.204],[-45.796,-1.231],[-45.809,-1.2]]],[[[-45.69,-1.187],[-45.686,-1.187],[-45.687,-1.19],[-45.69,-1.187]]],[[[-45.869,-1.185],[-45.867,-1.188],[-45.87,-1.188],[-45.869,-1.185]]],[[[-45.953,-1.186],[-45.957,-1.19],[-45.953,-1.182],[-45.953,-1.186]]],[[[-45.865,-1.183],[-45.861,-1.185],[-45.865,-1.19],[-45.865,-1.183]]],[[[-45.756,-1.177],[-45.754,-1.177],[-45.756,-1.178],[-45.756,-1.177]]],[[[-45.76,-1.177],[-45.752,-1.171],[-45.76,-1.181],[-45.76,-1.177]]],[[[-45.898,-1.159],[-45.902,-1.159],[-45.897,-1.155],[-45.898,-1.159]]],[[[-45.895,-1.152],[-45.893,-1.151],[-45.895,-1.153],[-45.895,-1.152]]],[[[-45.89,-1.138],[-45.888,-1.14],[-45.89,-1.139],[-45.89,-1.138]]],[[[-45.885,-1.137],[-45.882,-1.14],[-45.891,-1.146],[-45.885,-1.137]]],[[[-45.828,-1.129],[-45.804,-1.142],[-45.821,-1.155],[-45.828,-1.129]]],[[[-45.935,-1.098],[-45.935,-1.101],[-45.939,-1.101],[-45.935,-1.098]]],[[[-45.957,-1.192],[-45.95,-1.197],[-45.96,-1.221],[-45.959,-1.232],[-45.965,-1.237],[-45.975,-1.233],[-45.98,-1.235],[-45.98,-1.259],[-45.934,-1.222],[-45.945,-1.191],[-45.856,-1.052],[-45.924,-1.2],[-45.875,-1.149],[-45.914,-1.253],[-45.862,-1.265],[-45.802,-1.161],[-45.814,-1.204],[-45.804,-1.226],[-45.83,-1.262],[-45.827,-1.271],[-45.794,-1.247],[-45.714,-1.119],[-45.755,-1.242],[-45.691,-1.324],[-45.683,-1.321],[-45.681,-1.314],[-45.692,-1.273],[-45.648,-1.282],[-45.658,-1.266],[-45.645,-1.249],[-45.645,-1.187],[-45.624,-1.125],[-45.649,-1.306],[-45.638,-1.35],[-45.701,-1.371],[-45.657,-1.376],[-45.64,-1.373],[-45.623,-1.342],[-45.624,-1.283],[-45.593,-1.265],[-45.577,-1.376],[-45.557,-1.354],[-45.563,-1.335],[-45.555,-1.333],[-45.553,-1.34],[-45.548,-1.341],[-45.535,-1.333],[-45.52,-1.299],[-45.547,-1.372],[-45.503,-1.38],[-45.413,-1.297],[-45.489,-1.483],[-45.362,-1.431],[-45.398,-1.415],[-45.333,-1.368],[-45.358,-1.316],[-45.31,-1.332],[-45.404,-1.707],[-45.338,-1.768],[-45.275,-1.735],[-45.227,-1.676],[-45.154,-1.47],[-45.03,-1.596],[-44.763,-1.623],[-44.763,-1.587],[-44.74,-1.619],[-44.729,-1.62],[-44.677,-1.568],[-44.66,-1.66],[-44.687,-1.621],[-44.68,-1.645],[-44.754,-1.641],[-44.797,-1.678],[-44.8,-1.704],[-44.712,-1.714],[-44.703,-1.739],[-44.837,-1.821],[-44.608,-1.735],[-44.599,-1.743],[-44.63,-1.771],[-44.637,-1.783],[-44.636,-1.797],[-44.482,-2.042],[-44.689,-2.291],[-44.463,-2.146],[-44.302,-2.488],[-44.028,-2.409],[-44.124,-2.476],[-44.037,-2.557],[-44.235,-2.775],[-44.081,-2.785],[-43.919,-2.554],[-43.895,-2.566],[-43.899,-2.588],[-43.879,-2.613],[-43.874,-2.65],[-43.865,-2.657],[-43.839,-2.559],[-43.86,-2.575],[-43.873,-2.515],[-43.823,-2.576],[-43.747,-2.547],[-43.746,-2.496],[-43.716,-2.475],[-43.705,-2.56],[-43.65,-2.482],[-43.63,-2.562],[-43.615,-2.56],[-43.532,-2.419],[-43.493,-2.552],[-43.458,-2.51],[-43.451,-2.559],[-43.442,-2.566],[-43.461,-2.585],[-43.463,-2.594],[-43.457,-2.597],[-43.44,-2.57],[-43.447,-2.546],[-43.401,-2.553],[-43.394,-2.549],[-43.393,-2.543],[-43.464,-2.422],[-43.41,-2.455],[-43.41,-2.441],[-43.39,-2.451],[-43.387,-2.443],[-43.369,-2.445],[-43.358,-2.435],[-43.353,-2.443],[-43.35,-2.443],[-43.348,-2.441],[-43.378,-2.408],[-43.428,-2.428],[-43.482,-2.373],[-43.326,-2.337],[-42.704,-2.64],[-42.702,-2.64],[-42.687,-2.62],[-42.684,-2.622],[-42.695,-2.597],[-42.699,-2.577],[-42.696,-2.575],[-42.473,-2.741],[-42.266,-2.757],[-42.282,-2.862],[-41.998,-2.798],[-41.997,-2.761],[-42.017,-2.747],[-42.013,-2.716],[-41.823,-2.728],[-41.797,-2.963],[-42.204,-3.436],[-42.498,-3.448],[-42.989,-4.234],[-42.798,-5.183],[-43.099,-5.633],[-43.075,-6.055],[-42.829,-6.337],[-42.92,-6.67],[-43.42,-6.844],[-43.711,-6.7],[-44.033,-6.76],[-44.688,-7.395],[-45.459,-7.674],[-45.994,-8.927],[-45.784,-9.48],[-46.003,-10.261],[-46.368,-10.169],[-46.647,-9.73],[-46.561,-9.484],[-47.069,-9.064],[-46.807,-8.399],[-46.508,-8.271],[-46.492,-7.982],[-46.661,-7.901],[-47.043,-8.054],[-47.591,-7.44],[-47.5,-7.294],[-47.75,-7.191],[-47.53,-6.977],[-47.379,-6.271],[-47.5,-5.526],[-48.364,-5.168],[-48.755,-5.349],[-47.611,-4.556],[-47.088,-3.855],[-46.576,-2.841],[-46.664,-2.694],[-46.416,-2.529],[-46.432,-2.24],[-46.281,-2.153],[-46.151,-1.225],[-45.98,-1.048],[-45.987,-1.122],[-45.962,-1.107],[-45.967,-1.16],[-45.954,-1.161],[-45.961,-1.18],[-45.957,-1.192]]]]}},{"type":"Feature","id":"MT","properties":{"name":"MT","sigla":"MT","uf":"MT"},"geometry":{"type":"Polygon","coordinates":[[[-57.605,-8.663],[-56.754,-9.406],[-50.225,-9.841],[-50.603,-10.661],[-50.739,-11.435],[-50.706,-12.61],[-50.502,-12.884],[-50.872,-13.733],[-50.834,-14.09],[-51.084,-14.916],[-51.536,-15.07],[-51.88,-15.825],[-52.253,-15.893],[-52.682,-16.304],[-52.636,-16.552],[-53.011,-16.858],[-53.219,-17.299],[-53.247,-17.691],[-53.072,-18.039],[-53.949,-17.923],[-53.704,-17.661],[-53.709,-17.228],[-54.085,-17.619],[-54.336,-17.662],[-54.582,-17.468],[-55.127,-17.653],[-56.113,-17.167],[-56.734,-17.31],[-57.045,-17.73],[-57.452,-17.903],[-57.728,-17.53],[-58.003,-17.52],[-58.395,-17.184],[-58.471,-16.703],[-58.32,-16.269],[-60.172,-16.262],[-60.235,-15.474],[-60.561,-15.108],[-60.244,-15.097],[-60.482,-14.181],[-60.378,-13.992],[-60.925,-13.557],[-60.705,-13.325],[-60.362,-13.309],[-60.069,-12.616],[-59.774,-12.341],[-60.109,-11.84],[-59.92,-11.332],[-59.987,-11.115],[-60.46,-10.99],[-61.55,-10.986],[-61.478,-9.629],[-61.632,-9.264],[-61.468,-8.917],[-61.583,-8.799],[-58.416,-8.793],[-58.287,-8.129],[-58.383,-7.839],[-58.138,-7.349],[-57.643,-8.214],[-57.605,-8.663]]]}},{"type":"Feature","id":"MS","properties":{"name":"MS","sigla":"MS","uf":"MS"},"geometry":{"type":"Polygon","coordinates":[[[-56.104,-17.174],[-55.127,-17.653],[-54.582,-17.468],[-54.336,-17.662],[-54.085,-17.619],[-53.694,-17.234],[-53.704,-17.661],[-53.856,-17.703],[-53.949,-17.923],[-53.072,-18.039],[-53.07,-18.343],[-52.759,-18.349],[-52.915,-18.641],[-52.449,-18.691],[-50.936,-19.468],[-51.058,-20.234],[-51.591,-20.64],[-52.076,-21.715],[-52.487,-22.215],[-53.607,-22.951],[-54.284,-24.067],[-54.667,-23.813],[-55.412,-23.959],[-55.521,-23.194],[-55.685,-22.991],[-55.612,-22.656],[-55.853,-22.279],[-56.208,-22.278],[-56.403,-22.075],[-56.836,-22.298],[-58.005,-22.043],[-57.817,-20.974],[-58.163,-20.16],[-57.871,-19.976],[-58.133,-19.758],[-57.454,-18.231],[-57.796,-17.56],[-57.452,-17.903],[-57.045,-17.73],[-56.734,-17.31],[-56.104,-17.174]]]}},{"type":"Feature","id":"MG","properties":{"name":"MG","sigla":"MG","uf":"MG"},"geometry":{"type":"Polygon","coordinates":[[[-44.21,-14.237],[-43.783,-14.339],[-43.859,-14.674],[-43.531,-14.815],[-43.176,-14.651],[-42.092,-15.187],[-41.801,-15.101],[-41.356,-15.5],[-41.331,-15.745],[-40.707,-15.666],[-40.231,-15.804],[-39.857,-16.114],[-40.275,-16.574],[-40.282,-16.901],[-40.48,-16.877],[-40.57,-17.062],[-40.623,-17.406],[-40.224,-17.734],[-40.222,-17.98],[-40.527,-17.892],[-40.662,-18.013],[-40.517,-18.487],[-41.052,-18.344],[-41.181,-18.436],[-41.023,-18.458],[-40.944,-18.688],[-40.937,-18.831],[-41.245,-18.822],[-41.018,-18.974],[-40.945,-19.46],[-41.382,-20.189],[-41.847,-20.329],[-41.809,-20.644],[-42.152,-20.974],[-42.369,-21.62],[-42.271,-21.716],[-43.074,-22.093],[-43.766,-22.063],[-45.399,-22.653],[-45.717,-22.579],[-45.789,-22.857],[-46.345,-22.905],[-46.407,-22.541],[-46.723,-22.307],[-46.606,-21.65],[-46.763,-21.547],[-46.618,-21.421],[-47.011,-21.422],[-47.24,-20.885],[-47.097,-20.644],[-47.466,-19.964],[-48.828,-20.164],[-48.899,-20.441],[-48.992,-20.165],[-49.227,-20.304],[-49.249,-19.972],[-49.551,-19.906],[-50.472,-19.78],[-51.0,-20.085],[-50.962,-19.485],[-50.827,-19.487],[-50.817,-19.29],[-50.309,-18.698],[-49.536,-18.494],[-49.395,-18.646],[-49.005,-18.537],[-48.937,-18.306],[-48.262,-18.332],[-47.955,-18.5],[-47.283,-18.058],[-47.267,-17.609],[-47.539,-17.389],[-47.128,-16.979],[-47.459,-16.504],[-47.3,-16.017],[-46.808,-15.877],[-46.919,-15.05],[-46.503,-15.053],[-46.475,-14.705],[-46.287,-14.928],[-46.004,-14.902],[-46.119,-15.192],[-46.053,-15.259],[-44.21,-14.237]]]}},{"type":"Feature","id":"PA","properties":{"name":"PA","sigla":"PA","uf":"PA"},"geometry":{"type":"MultiPolygon","coordinates":[[[[-46.434,-1.017],[-46.434,-1.019],[-46.438,-1.019],[-46.434,-1.017]]],[[[-46.441,-1.007],[-46.439,-1.021],[-46.449,-1.017],[-46.441,-1.007]]],[[[-46.385,-1.007],[-46.375,-1.004],[-46.379,-1.022],[-46.385,-1.007]]],[[[-46.587,-0.987],[-46.578,-0.99],[-46.586,-0.991],[-46.587,-0.987]]],[[[-46.483,-0.972],[-46.479,-0.974],[-46.485,-0.974],[-46.483,-0.972]]],[[[-46.474,-0.967],[-46.471,-0.969],[-46.476,-0.969],[-46.474,-0.967]]],[[[-46.199,-0.952],[-46.196,-0.953],[-46.198,-0.955],[-46.199,-0.952]]],[[[-46.468,-0.953],[-46.465,-0.953],[-46.469,-0.956],[-46.468,-0.953]]],[[[-46.2,-0.949],[-46.192,-0.95],[-46.2,-0.95],[-46.2,-0.949]]],[[[-46.621,-0.944],[-46.602,-0.946],[-46.629,-0.96],[-46.621,-0.944]]],[[[-46.206,-0.944],[-46.2,-0.948],[-46.21,-0.951],[-46.206,-0.944]]],[[[-46.415,-0.94],[-46.405,-0.964],[-46.436,-0.989],[-46.415,-0.94]]],[[[-46.34,-0.958],[-46.307,-0.946],[-46.315,-1.007],[-46.34,-0.958]]],[[[-46.154,-0.938],[-46.143,-0.939],[-46.147,-0.947],[-46.154,-0.938]]],[[[-46.525,-0.938],[-46.512,-0.935],[-46.517,-0.951],[-46.525,-0.938]]],[[[-46.427,-0.922],[-46.418,-0.922],[-46.413,-0.921],[-46.412,-0.922],[-46.427,-0.922]]],[[[-46.463,-0.911],[-46.456,-0.908],[-46.461,-0.916],[-46.463,-0.911]]],[[[-47.061,-0.813],[-47.058,-0.814],[-47.06,-0.815],[-47.061,-0.813]]],[[[-46.751,-0.81],[-46.748,-0.813],[-46.752,-0.813],[-46.751,-0.81]]],[[[-47.078,-0.797],[-47.076,-0.798],[-47.077,-0.799],[-47.078,-0.797]]],[[[-47.071,-0.786],[-47.069,-0.788],[-47.071,-0.789],[-47.071,-0.786]]],[[[-46.731,-0.782],[-46.709,-0.787],[-46.713,-0.796],[-46.731,-0.782]]],[[[-47.153,-0.787],[-47.148,-0.787],[-47.152,-0.792],[-47.153,-0.787]]],[[[-47.084,-0.764],[-47.086,-0.765],[-47.083,-0.761],[-47.084,-0.764]]],[[[-47.203,-0.761],[-47.198,-0.764],[-47.203,-0.764],[-47.203,-0.761]]],[[[-47.105,-0.752],[-47.101,-0.753],[-47.105,-0.753],[-47.105,-0.752]]],[[[-46.87,-0.751],[-46.867,-0.752],[-46.87,-0.752],[-46.87,-0.751]]],[[[-46.927,-0.739],[-46.926,-0.745],[-46.932,-0.749],[-46.927,-0.739]]],[[[-47.155,-0.734],[-47.153,-0.733],[-47.155,-0.736],[-47.155,-0.734]]],[[[-47.106,-0.726],[-47.103,-0.725],[-47.105,-0.728],[-47.106,-0.726]]],[[[-46.955,-0.72],[-46.951,-0.72],[-46.952,-0.722],[-46.955,-0.72]]],[[[-47.471,-0.709],[-47.435,-0.744],[-47.467,-0.756],[-47.471,-0.709]]],[[[-47.997,-0.683],[-47.991,-0.687],[-47.992,-0.694],[-47.997,-0.683]]],[[[-48.016,-0.666],[-48.006,-0.679],[-48.013,-0.685],[-48.016,-0.666]]],[[[-47.982,-0.66],[-47.974,-0.665],[-47.982,-0.674],[-47.982,-0.66]]],[[[-47.847,-0.665],[-47.84,-0.666],[-47.843,-0.672],[-47.847,-0.665]]],[[[-47.838,-0.657],[-47.835,-0.659],[-47.837,-0.664],[-47.838,-0.657]]],[[[-47.851,-0.635],[-47.855,-0.64],[-47.853,-0.637],[-47.851,-0.635]]],[[[-47.299,-0.636],[-47.296,-0.635],[-47.297,-0.637],[-47.299,-0.636]]],[[[-47.944,-0.634],[-47.941,-0.633],[-47.941,-0.636],[-47.944,-0.634]]],[[[-47.83,-0.638],[-47.823,-0.636],[-47.827,-0.648],[-47.83,-0.638]]],[[[-47.7,-0.615],[-47.697,-0.615],[-47.698,-0.619],[-47.7,-0.615]]],[[[-47.638,-0.606],[-47.637,-0.605],[-47.637,-0.606],[-47.638,-0.606]]],[[[-47.467,-0.608],[-47.462,-0.605],[-47.463,-0.608],[-47.467,-0.608]]],[[[-47.888,-0.599],[-47.893,-0.604],[-47.899,-0.603],[-47.888,-0.599]]],[[[-47.703,-0.601],[-47.697,-0.599],[-47.701,-0.603],[-47.703,-0.601]]],[[[-47.878,-0.597],[-47.875,-0.598],[-47.879,-0.598],[-47.878,-0.597]]],[[[-47.863,-0.591],[-47.846,-0.625],[-47.856,-0.64],[-47.856,-0.654],[-47.865,-0.66],[-47.863,-0.591]]],[[[-47.803,-0.59],[-47.8,-0.586],[-47.799,-0.592],[-47.803,-0.59]]],[[[-47.796,-0.586],[-47.788,-0.589],[-47.796,-0.597],[-47.796,-0.586]]],[[[-47.862,-0.59],[-47.848,-0.593],[-47.853,-0.597],[-47.862,-0.59]]],[[[-47.783,-0.583],[-47.773,-0.587],[-47.78,-0.594],[-47.783,-0.583]]],[[[-47.585,-0.632],[-47.538,-0.607],[-47.54,-0.638],[-47.56,-0.633],[-47.585,-0.632]]],[[[-47.918,-0.566],[-47.857,-0.582],[-47.902,-0.602],[-47.918,-0.566]]],[[[-47.819,-0.562],[-47.797,-0.57],[-47.819,-0.596],[-47.819,-0.562]]],[[[-47.769,-0.569],[-47.695,-0.56],[-47.72,-0.643],[-47.769,-0.569]]],[[[-48.404,-0.251],[-48.395,-0.251],[-48.394,-0.257],[-48.404,-0.251]]],[[[-48.963,-0.193],[-48.956,-0.192],[-48.957,-0.198],[-48.963,-0.193]]],[[[-48.953,-0.191],[-48.95,-0.188],[-48.95,-0.191],[-48.953,-0.191]]],[[[-48.956,-0.185],[-48.953,-0.187],[-48.955,-0.19],[-48.956,-0.185]]],[[[-48.985,-0.182],[-48.97,-0.18],[-48.967,-0.19],[-48.985,-0.182]]],[[[-48.948,-0.175],[-48.939,-0.175],[-48.947,-0.183],[-48.948,-0.175]]],[[[-48.768,-0.171],[-48.746,-0.171],[-48.765,-0.186],[-48.768,-0.171]]],[[[-48.934,-0.161],[-48.867,-0.196],[-48.946,-0.209],[-48.934,-0.161]]],[[[-49.152,-0.153],[-49.122,-0.145],[-49.122,-0.158],[-49.152,-0.153]]],[[[-49.175,-0.135],[-49.164,-0.135],[-49.167,-0.14],[-49.175,-0.135]]],[[[-49.958,0.334],[-49.929,0.355],[-49.909,0.34],[-49.958,0.334]]],[[[-54.943,2.602],[-54.745,1.776],[-54.309,1.741],[-54.086,1.488],[-53.426,1.243],[-53.411,0.929],[-53.106,0.684],[-53.175,0.382],[-52.934,-0.14],[-52.523,-0.589],[-52.427,-1.051],[-52.1,-1.227],[-51.704,-1.068],[-51.679,-0.785],[-51.216,-0.119],[-50.157,0.705],[-50.002,0.304],[-49.543,0.362],[-49.325,-0.162],[-48.927,-0.255],[-48.437,-0.231],[-48.019,-0.699],[-47.815,-0.695],[-47.785,-0.588],[-47.796,-0.665],[-47.704,-0.702],[-47.665,-0.578],[-47.65,-0.698],[-47.547,-0.637],[-47.487,-0.754],[-47.429,-0.762],[-47.433,-0.723],[-47.472,-0.692],[-47.461,-0.606],[-47.477,-0.593],[-47.321,-0.592],[-47.311,-0.637],[-47.263,-0.646],[-47.272,-0.675],[-47.216,-0.637],[-47.215,-0.713],[-47.17,-0.682],[-47.219,-0.761],[-47.168,-0.82],[-47.139,-0.8],[-47.126,-0.683],[-47.087,-0.681],[-47.075,-0.707],[-47.108,-0.713],[-47.11,-0.757],[-47.081,-0.801],[-47.075,-0.802],[-47.066,-0.784],[-47.063,-0.79],[-47.103,-0.844],[-47.101,-0.853],[-47.001,-0.828],[-46.968,-0.707],[-46.958,-0.864],[-46.844,-0.739],[-46.75,-0.944],[-46.618,-0.806],[-46.668,-0.978],[-46.599,-0.956],[-46.594,-0.992],[-46.578,-0.991],[-46.553,-0.916],[-46.529,-0.968],[-46.511,-0.949],[-46.507,-0.887],[-46.427,-0.867],[-46.477,-0.905],[-46.496,-0.977],[-46.478,-1.027],[-46.315,-1.022],[-46.202,-0.89],[-46.226,-0.996],[-46.122,-1.052],[-46.094,-1.02],[-46.08,-1.018],[-46.07,-1.028],[-46.154,-1.676],[-46.324,-1.766],[-46.21,-1.834],[-46.281,-2.153],[-46.432,-2.24],[-46.416,-2.529],[-46.664,-2.694],[-46.576,-2.841],[-47.088,-3.855],[-47.611,-4.556],[-48.755,-5.349],[-48.138,-5.603],[-48.294,-5.757],[-48.232,-5.946],[-48.665,-6.663],[-49.209,-6.925],[-49.185,-7.235],[-49.384,-7.544],[-49.151,-7.802],[-49.216,-8.194],[-50.038,-9.289],[-50.09,-9.546],[-50.139,-9.627],[-50.151,-9.696],[-50.198,-9.759],[-50.218,-9.835],[-50.227,-9.846],[-56.761,-9.405],[-57.193,-8.93],[-57.593,-8.756],[-57.645,-8.209],[-58.463,-6.837],[-56.466,-2.423],[-56.097,-2.037],[-56.679,-2.213],[-57.165,-1.721],[-57.96,-1.402],[-58.017,-1.106],[-58.163,-1.23],[-58.43,-1.027],[-58.872,-0.343],[-58.895,1.229],[-58.514,1.26],[-58.319,1.594],[-58.008,1.502],[-57.999,1.667],[-57.555,1.697],[-57.302,1.99],[-55.972,1.837],[-55.912,2.042],[-56.133,2.264],[-55.981,2.523],[-55.37,2.407],[-54.943,2.602]]]]}},{"type":"Feature","id":"PB","properties":{"name":"PB","sigla":"PB","uf":"PB"},"geometry":{"type":"MultiPolygon","coordinates":[[[[-43.009,-9.144],[-42.775,-9.366],[-43.012,-9.408],[-43.009,-9.144]]],[[[-34.808,-7.243],[-34.805,-7.244],[-34.806,-7.246],[-34.808,-7.243]]],[[[-34.892,-7.091],[-34.888,-7.09],[-34.892,-7.092],[-34.892,-7.091]]],[[[-34.869,-7.023],[-34.866,-7.023],[-34.869,-7.027],[-34.869,-7.023]]],[[[-37.231,-6.029],[-37.157,-6.152],[-37.485,-6.71],[-37.011,-6.874],[-36.835,-6.731],[-36.718,-6.983],[-36.507,-6.813],[-36.394,-6.294],[-35.977,-6.489],[-34.971,-6.485],[-34.908,-7.119],[-34.86,-7.062],[-34.831,-6.966],[-34.793,-7.154],[-34.808,-7.241],[-34.804,-7.472],[-34.825,-7.548],[-35.077,-7.397],[-35.479,-7.445],[-35.533,-7.655],[-36.424,-7.816],[-36.991,-8.303],[-37.193,-7.961],[-37.356,-7.975],[-36.984,-7.482],[-37.233,-7.275],[-38.077,-7.831],[-38.287,-7.83],[-38.357,-7.677],[-38.594,-7.754],[-38.718,-7.609],[-38.535,-7.294],[-38.765,-6.911],[-38.57,-6.455],[-37.966,-6.614],[-38.014,-6.427],[-37.749,-6.194],[-37.231,-6.029]]]]}},{"type":"Feature","id":"PR","properties":{"name":"PR","sigla":"PR","uf":"PR"},"geometry":{"type":"MultiPolygon","coordinates":[[[[-48.637,-25.869],[-48.628,-25.869],[-48.638,-25.87],[-48.637,-25.869]]],[[[-48.709,-25.867],[-48.707,-25.867],[-48.702,-25.868],[-48.709,-25.867]]],[[[-48.664,-25.864],[-48.658,-25.864],[-48.658,-25.864],[-48.664,-25.864]]],[[[-48.652,-25.863],[-48.65,-25.864],[-48.652,-25.864],[-48.652,-25.863]]],[[[-48.668,-25.861],[-48.664,-25.862],[-48.668,-25.862],[-48.668,-25.861]]],[[[-48.693,-25.862],[-48.688,-25.858],[-48.686,-25.859],[-48.693,-25.862]]],[[[-48.598,-25.862],[-48.576,-25.856],[-48.578,-25.859],[-48.598,-25.862]]],[[[-48.627,-25.859],[-48.622,-25.855],[-48.614,-25.861],[-48.627,-25.859]]],[[[-48.619,-25.853],[-48.615,-25.855],[-48.619,-25.855],[-48.619,-25.853]]],[[[-48.608,-25.853],[-48.605,-25.853],[-48.605,-25.855],[-48.608,-25.853]]],[[[-48.614,-25.844],[-48.612,-25.845],[-48.614,-25.845],[-48.614,-25.844]]],[[[-48.593,-25.836],[-48.581,-25.829],[-48.58,-25.837],[-48.593,-25.836]]],[[[-48.585,-25.853],[-48.595,-25.836],[-48.583,-25.84],[-48.585,-25.853]]],[[[-48.367,-25.735],[-48.364,-25.737],[-48.366,-25.737],[-48.367,-25.735]]],[[[-48.32,-25.583],[-48.323,-25.587],[-48.324,-25.584],[-48.32,-25.583]]],[[[-48.415,-25.546],[-48.415,-25.547],[-48.417,-25.548],[-48.415,-25.546]]],[[[-48.438,-25.547],[-48.436,-25.546],[-48.435,-25.547],[-48.438,-25.547]]],[[[-48.305,-25.542],[-48.299,-25.566],[-48.32,-25.574],[-48.305,-25.542]]],[[[-48.285,-25.517],[-48.281,-25.517],[-48.281,-25.52],[-48.285,-25.517]]],[[[-48.49,-25.516],[-48.486,-25.515],[-48.484,-25.518],[-48.49,-25.516]]],[[[-48.462,-25.515],[-48.413,-25.519],[-48.405,-25.54],[-48.462,-25.515]]],[[[-48.611,-25.509],[-48.609,-25.51],[-48.61,-25.511],[-48.611,-25.509]]],[[[-48.47,-25.528],[-48.472,-25.503],[-48.463,-25.519],[-48.417,-25.547],[-48.47,-25.528]]],[[[-48.376,-25.514],[-48.318,-25.497],[-48.308,-25.537],[-48.376,-25.514]]],[[[-48.707,-25.496],[-48.701,-25.493],[-48.7,-25.497],[-48.707,-25.496]]],[[[-48.65,-25.498],[-48.638,-25.498],[-48.638,-25.502],[-48.65,-25.498]]],[[[-48.583,-25.483],[-48.581,-25.483],[-48.581,-25.485],[-48.583,-25.483]]],[[[-48.435,-25.485],[-48.428,-25.483],[-48.43,-25.489],[-48.435,-25.485]]],[[[-48.584,-25.479],[-48.582,-25.48],[-48.582,-25.481],[-48.584,-25.479]]],[[[-48.572,-25.472],[-48.57,-25.47],[-48.57,-25.471],[-48.572,-25.472]]],[[[-48.575,-25.466],[-48.573,-25.468],[-48.575,-25.467],[-48.575,-25.466]]],[[[-48.663,-25.444],[-48.653,-25.445],[-48.663,-25.448],[-48.663,-25.444]]],[[[-48.702,-25.425],[-48.699,-25.424],[-48.7,-25.425],[-48.702,-25.425]]],[[[-48.718,-25.414],[-48.715,-25.415],[-48.719,-25.415],[-48.718,-25.414]]],[[[-48.665,-25.415],[-48.663,-25.432],[-48.68,-25.427],[-48.679,-25.418],[-48.665,-25.415]]],[[[-48.469,-25.409],[-48.463,-25.409],[-48.467,-25.412],[-48.469,-25.409]]],[[[-48.73,-25.414],[-48.717,-25.408],[-48.717,-25.412],[-48.73,-25.414]]],[[[-48.729,-25.399],[-48.726,-25.399],[-48.725,-25.402],[-48.729,-25.399]]],[[[-48.33,-25.384],[-48.326,-25.386],[-48.331,-25.389],[-48.33,-25.384]]],[[[-48.32,-25.367],[-48.318,-25.37],[-48.321,-25.368],[-48.32,-25.367]]],[[[-48.232,-25.366],[-48.23,-25.368],[-48.232,-25.369],[-48.232,-25.366]]],[[[-48.229,-25.363],[-48.225,-25.366],[-48.229,-25.377],[-48.229,-25.363]]],[[[-48.038,-25.357],[-48.035,-25.357],[-48.038,-25.358],[-48.038,-25.357]]],[[[-48.235,-25.353],[-48.231,-25.355],[-48.232,-25.359],[-48.235,-25.353]]],[[[-48.302,-25.488],[-48.242,-25.35],[-48.265,-25.426],[-48.252,-25.466],[-48.302,-25.488]]],[[[-48.395,-25.337],[-48.385,-25.346],[-48.401,-25.35],[-48.395,-25.337]]],[[[-48.279,-25.331],[-48.267,-25.337],[-48.28,-25.337],[-48.279,-25.331]]],[[[-48.259,-25.328],[-48.255,-25.329],[-48.259,-25.33],[-48.259,-25.328]]],[[[-48.427,-25.354],[-48.396,-25.336],[-48.416,-25.385],[-48.427,-25.354]]],[[[-48.395,-25.324],[-48.386,-25.323],[-48.386,-25.326],[-48.395,-25.324]]],[[[-48.184,-25.295],[-48.178,-25.296],[-48.184,-25.297],[-48.184,-25.295]]],[[[-48.196,-25.292],[-48.187,-25.294],[-48.195,-25.298],[-48.196,-25.292]]],[[[-48.186,-25.29],[-48.182,-25.292],[-48.186,-25.292],[-48.186,-25.29]]],[[[-48.172,-25.29],[-48.157,-25.293],[-48.177,-25.296],[-48.172,-25.29]]],[[[-48.426,-25.284],[-48.423,-25.282],[-48.42,-25.285],[-48.426,-25.284]]],[[[-48.427,-25.277],[-48.424,-25.275],[-48.422,-25.278],[-48.427,-25.277]]],[[[-48.416,-25.269],[-48.415,-25.264],[-48.411,-25.265],[-48.41,-25.268],[-48.416,-25.269]]],[[[-48.347,-25.263],[-48.335,-25.27],[-48.349,-25.271],[-48.347,-25.263]]],[[[-48.337,-25.252],[-48.341,-25.253],[-48.337,-25.251],[-48.337,-25.252]]],[[[-48.335,-25.25],[-48.332,-25.252],[-48.335,-25.252],[-48.335,-25.25]]],[[[-48.425,-25.249],[-48.422,-25.247],[-48.423,-25.25],[-48.425,-25.249]]],[[[-48.348,-25.573],[-48.721,-25.869],[-48.66,-25.882],[-48.564,-25.863],[-48.601,-25.98],[-49.175,-26.002],[-49.555,-26.237],[-50.172,-26.025],[-50.126,-26.204],[-50.285,-26.309],[-50.572,-26.004],[-50.718,-26.245],[-51.243,-26.325],[-51.229,-26.616],[-51.411,-26.717],[-52.186,-26.445],[-53.552,-26.293],[-53.837,-25.966],[-53.89,-25.622],[-54.115,-25.502],[-54.433,-25.703],[-54.616,-25.456],[-54.259,-24.36],[-54.328,-24.128],[-53.607,-22.951],[-52.972,-22.57],[-52.223,-22.674],[-52.108,-22.517],[-51.264,-22.669],[-50.742,-22.961],[-49.986,-22.898],[-49.727,-23.108],[-49.568,-23.427],[-49.611,-23.852],[-49.201,-24.344],[-49.305,-24.673],[-48.582,-24.672],[-48.556,-25.084],[-48.252,-24.979],[-48.024,-25.231],[-48.23,-25.47],[-48.254,-25.426],[-48.22,-25.378],[-48.225,-25.337],[-48.209,-25.348],[-48.208,-25.318],[-48.181,-25.328],[-48.188,-25.303],[-48.138,-25.29],[-48.13,-25.269],[-48.287,-25.292],[-48.317,-25.365],[-48.327,-25.235],[-48.427,-25.227],[-48.502,-25.33],[-48.474,-25.481],[-48.74,-25.364],[-48.733,-25.413],[-48.678,-25.455],[-48.738,-25.478],[-48.709,-25.5],[-48.348,-25.573]]]]}},{"type":"Feature","id":"PE","properties":{"name":"PE","sigla":"PE","uf":"PE"},"geometry":{"type":"MultiPolygon","coordinates":[[[[-35.14,-8.843],[-35.135,-8.848],[-35.137,-8.848],[-35.14,-8.843]]],[[[-35.025,-8.613],[-35.02,-8.611],[-35.02,-8.615],[-35.025,-8.613]]],[[[-34.97,-8.393],[-34.966,-8.394],[-34.966,-8.394],[-34.97,-8.393]]],[[[-34.984,-8.386],[-34.97,-8.383],[-34.972,-8.39],[-34.984,-8.386]]],[[[-34.968,-8.383],[-34.957,-8.377],[-34.961,-8.385],[-34.968,-8.383]]],[[[-34.946,-8.362],[-34.956,-8.388],[-34.958,-8.391],[-34.946,-8.362]]],[[[-34.864,-7.892],[-34.858,-7.895],[-34.865,-7.895],[-34.864,-7.892]]],[[[-34.877,-7.818],[-34.873,-7.819],[-34.873,-7.819],[-34.877,-7.818]]],[[[-34.841,-7.816],[-34.837,-7.817],[-34.841,-7.817],[-34.841,-7.816]]],[[[-34.861,-7.704],[-34.86,-7.706],[-34.861,-7.707],[-34.861,-7.704]]],[[[-34.859,-7.7],[-34.857,-7.702],[-34.859,-7.706],[-34.859,-7.7]]],[[[-34.856,-7.695],[-34.854,-7.695],[-34.856,-7.698],[-34.856,-7.695]]],[[[-34.862,-7.713],[-34.835,-7.807],[-34.882,-7.808],[-34.884,-7.771],[-34.862,-7.728],[-34.862,-7.713]]],[[[-37.165,-7.337],[-36.984,-7.482],[-37.356,-7.975],[-37.193,-7.961],[-36.991,-8.303],[-36.424,-7.816],[-35.533,-7.655],[-35.479,-7.445],[-35.077,-7.397],[-34.837,-7.546],[-34.905,-7.725],[-34.866,-7.715],[-34.893,-7.793],[-34.888,-7.809],[-34.864,-7.817],[-34.876,-7.816],[-34.892,-7.827],[-34.895,-7.822],[-34.897,-7.822],[-34.898,-7.823],[-34.895,-7.831],[-34.844,-7.822],[-34.877,-7.893],[-34.824,-7.947],[-35.125,-8.669],[-35.152,-8.91],[-35.896,-8.854],[-36.224,-9.171],[-36.604,-9.341],[-36.872,-9.269],[-36.908,-9.394],[-37.76,-8.858],[-38.237,-9.33],[-38.48,-8.85],[-38.641,-8.987],[-39.384,-8.534],[-39.895,-8.832],[-39.958,-9.049],[-40.251,-9.061],[-40.335,-9.354],[-40.623,-9.483],[-40.777,-9.454],[-40.667,-9.159],[-40.921,-8.835],[-41.358,-8.708],[-40.59,-8.138],[-40.54,-7.855],[-40.715,-7.488],[-40.548,-7.393],[-39.663,-7.311],[-39.091,-7.858],[-38.715,-7.622],[-38.077,-7.831],[-37.496,-7.366],[-37.165,-7.337]]]]}},{"type":"Feature","id":"PI","properties":{"name":"PI","sigla":"PI","uf":"PI"},"geometry":{"type":"Polygon","coordinates":[[[-41.817,-2.744],[-41.257,-3.005],[-41.423,-3.368],[-41.083,-4.19],[-41.249,-4.869],[-40.925,-5.182],[-40.732,-6.654],[-40.371,-6.803],[-40.548,-7.393],[-40.713,-7.473],[-40.54,-7.855],[-40.59,-8.138],[-41.399,-8.705],[-41.838,-9.242],[-42.208,-9.194],[-42.765,-9.617],[-42.963,-9.457],[-42.782,-9.285],[-42.994,-9.137],[-43.012,-9.408],[-43.485,-9.265],[-43.85,-9.548],[-43.662,-10.004],[-44.13,-10.633],[-44.578,-10.627],[-44.931,-10.929],[-45.248,-10.822],[-45.593,-10.11],[-45.946,-10.259],[-45.784,-9.48],[-45.961,-8.819],[-45.394,-7.613],[-44.688,-7.395],[-44.033,-6.76],[-43.711,-6.7],[-43.42,-6.844],[-42.92,-6.67],[-42.829,-6.337],[-43.075,-6.055],[-43.099,-5.633],[-42.798,-5.183],[-42.989,-4.234],[-42.498,-3.448],[-42.204,-3.436],[-41.939,-3.187],[-41.817,-2.744]]]}},{"type":"Feature","id":"RJ","properties":{"name":"RJ","sigla":"RJ","uf":"RJ"},"geometry":{"type":"MultiPolygon","coordinates":[[[[-44.673,-23.355],[-44.671,-23.356],[-44.673,-23.357],[-44.673,-23.355]]],[[[-44.57,-23.348],[-44.568,-23.351],[-44.571,-23.353],[-44.57,-23.348]]],[[[-44.632,-23.273],[-44.63,-23.273],[-44.63,-23.275],[-44.632,-23.273]]],[[[-44.569,-23.266],[-44.572,-23.266],[-44.569,-23.265],[-44.569,-23.266]]],[[[-44.647,-23.227],[-44.634,-23.226],[-44.65,-23.232],[-44.647,-23.227]]],[[[-44.558,-23.222],[-44.556,-23.224],[-44.558,-23.224],[-44.558,-23.222]]],[[[-44.693,-23.216],[-44.69,-23.218],[-44.692,-23.218],[-44.693,-23.216]]],[[[-44.162,-23.223],[-44.149,-23.223],[-44.162,-23.227],[-44.162,-23.223]]],[[[-44.36,-23.212],[-44.357,-23.215],[-44.361,-23.215],[-44.36,-23.212]]],[[[-44.585,-23.21],[-44.584,-23.212],[-44.585,-23.211],[-44.585,-23.21]]],[[[-44.605,-23.215],[-44.594,-23.217],[-44.622,-23.223],[-44.605,-23.215]]],[[[-44.585,-23.2],[-44.579,-23.202],[-44.584,-23.203],[-44.585,-23.2]]],[[[-44.575,-23.196],[-44.572,-23.197],[-44.574,-23.197],[-44.575,-23.196]]],[[[-44.608,-23.195],[-44.607,-23.196],[-44.608,-23.197],[-44.608,-23.195]]],[[[-44.623,-23.19],[-44.621,-23.191],[-44.624,-23.192],[-44.623,-23.19]]],[[[-44.578,-23.186],[-44.573,-23.189],[-44.577,-23.19],[-44.578,-23.186]]],[[[-44.183,-23.183],[-44.179,-23.185],[-44.184,-23.184],[-44.183,-23.183]]],[[[-44.66,-23.187],[-44.656,-23.183],[-44.657,-23.189],[-44.66,-23.187]]],[[[-44.685,-23.178],[-44.682,-23.179],[-44.683,-23.179],[-44.685,-23.178]]],[[[-44.678,-23.17],[-44.677,-23.172],[-44.679,-23.172],[-44.678,-23.17]]],[[[-44.667,-23.161],[-44.662,-23.161],[-44.666,-23.163],[-44.667,-23.161]]],[[[-44.695,-23.157],[-44.682,-23.158],[-44.693,-23.17],[-44.695,-23.157]]],[[[-44.109,-23.138],[-44.108,-23.143],[-44.11,-23.143],[-44.109,-23.138]]],[[[-44.687,-23.129],[-44.684,-23.13],[-44.687,-23.131],[-44.687,-23.129]]],[[[-44.679,-23.125],[-44.678,-23.126],[-44.679,-23.127],[-44.679,-23.125]]],[[[-44.678,-23.111],[-44.673,-23.113],[-44.678,-23.115],[-44.678,-23.111]]],[[[-44.681,-23.109],[-44.679,-23.109],[-44.679,-23.11],[-44.681,-23.109]]],[[[-44.686,-23.108],[-44.689,-23.108],[-44.686,-23.106],[-44.686,-23.108]]],[[[-44.12,-23.098],[-44.118,-23.1],[-44.122,-23.101],[-44.12,-23.098]]],[[[-44.674,-23.098],[-44.67,-23.098],[-44.673,-23.099],[-44.674,-23.098]]],[[[-44.685,-23.087],[-44.683,-23.088],[-44.685,-23.089],[-44.685,-23.087]]],[[[-44.595,-23.086],[-44.593,-23.088],[-44.595,-23.089],[-44.595,-23.086]]],[[[-44.313,-23.085],[-44.312,-23.087],[-44.313,-23.087],[-44.313,-23.085]]],[[[-44.244,-23.085],[-44.24,-23.084],[-44.24,-23.087],[-44.244,-23.085]]],[[[-44.332,-23.084],[-44.329,-23.087],[-44.332,-23.087],[-44.332,-23.084]]],[[[-43.564,-23.081],[-43.559,-23.081],[-43.562,-23.083],[-43.564,-23.081]]],[[[-44.23,-23.075],[-44.091,-23.174],[-44.305,-23.178],[-44.333,-23.224],[-44.348,-23.227],[-44.23,-23.075]]],[[[-43.202,-23.075],[-43.198,-23.073],[-43.198,-23.076],[-43.202,-23.075]]],[[[-44.254,-23.07],[-44.252,-23.072],[-44.256,-23.071],[-44.254,-23.07]]],[[[-44.396,-23.069],[-44.393,-23.072],[-44.395,-23.073],[-44.396,-23.069]]],[[[-44.642,-23.068],[-44.64,-23.074],[-44.645,-23.075],[-44.642,-23.068]]],[[[-44.633,-23.069],[-44.629,-23.071],[-44.632,-23.072],[-44.633,-23.069]]],[[[-43.2,-23.071],[-43.191,-23.07],[-43.193,-23.075],[-43.2,-23.071]]],[[[-44.604,-23.067],[-44.602,-23.069],[-44.605,-23.068],[-44.604,-23.067]]],[[[-44.597,-23.065],[-44.595,-23.067],[-44.597,-23.067],[-44.597,-23.065]]],[[[-44.412,-23.063],[-44.41,-23.064],[-44.412,-23.064],[-44.412,-23.063]]],[[[-43.513,-23.062],[-43.508,-23.065],[-43.514,-23.066],[-43.513,-23.062]]],[[[-44.629,-23.061],[-44.626,-23.062],[-44.629,-23.063],[-44.629,-23.061]]],[[[-43.148,-23.066],[-43.143,-23.064],[-43.142,-23.067],[-43.148,-23.066]]],[[[-44.419,-23.057],[-44.414,-23.06],[-44.42,-23.06],[-44.419,-23.057]]],[[[-44.318,-23.059],[-44.31,-23.061],[-44.32,-23.062],[-44.318,-23.059]]],[[[-44.624,-23.057],[-44.619,-23.059],[-44.624,-23.06],[-44.624,-23.057]]],[[[-44.609,-23.061],[-44.6,-23.057],[-44.609,-23.065],[-44.609,-23.061]]],[[[-44.565,-23.063],[-44.552,-23.057],[-44.564,-23.069],[-44.565,-23.063]]],[[[-44.405,-23.055],[-44.402,-23.058],[-44.404,-23.058],[-44.405,-23.055]]],[[[-44.318,-23.054],[-44.315,-23.056],[-44.318,-23.055],[-44.318,-23.054]]],[[[-44.335,-23.054],[-44.332,-23.055],[-44.333,-23.056],[-44.335,-23.054]]],[[[-44.563,-23.052],[-44.56,-23.053],[-44.563,-23.053],[-44.563,-23.052]]],[[[-44.139,-23.042],[-44.136,-23.044],[-44.139,-23.044],[-44.139,-23.042]]],[[[-44.502,-23.048],[-44.494,-23.053],[-44.504,-23.055],[-44.502,-23.048]]],[[[-44.395,-23.039],[-44.392,-23.042],[-44.396,-23.042],[-44.395,-23.039]]],[[[-43.142,-23.04],[-43.14,-23.041],[-43.142,-23.042],[-43.142,-23.04]]],[[[-44.343,-23.038],[-44.342,-23.04],[-44.344,-23.039],[-44.343,-23.038]]],[[[-44.162,-23.041],[-44.158,-23.039],[-44.158,-23.042],[-44.162,-23.041]]],[[[-44.129,-23.043],[-44.125,-23.037],[-44.124,-23.041],[-44.129,-23.043]]],[[[-43.308,-23.037],[-43.303,-23.039],[-43.308,-23.039],[-43.308,-23.037]]],[[[-44.52,-23.036],[-44.516,-23.037],[-44.521,-23.039],[-44.52,-23.036]]],[[[-44.4,-23.035],[-44.398,-23.037],[-44.401,-23.037],[-44.4,-23.035]]],[[[-44.413,-23.034],[-44.412,-23.035],[-44.413,-23.036],[-44.413,-23.034]]],[[[-44.392,-23.045],[-44.347,-23.04],[-44.346,-23.069],[-44.392,-23.045]]],[[[-43.301,-23.031],[-43.298,-23.035],[-43.302,-23.033],[-43.301,-23.031]]],[[[-44.482,-23.03],[-44.48,-23.031],[-44.483,-23.032],[-44.482,-23.03]]],[[[-43.607,-23.029],[-43.605,-23.034],[-43.607,-23.032],[-43.612,-23.031],[-43.607,-23.029]]],[[[-43.279,-23.03],[-43.275,-23.031],[-43.278,-23.032],[-43.279,-23.03]]],[[[-44.403,-23.027],[-44.401,-23.032],[-44.404,-23.033],[-44.403,-23.027]]],[[[-44.334,-23.026],[-44.329,-23.028],[-44.334,-23.028],[-44.334,-23.026]]],[[[-44.288,-23.026],[-44.286,-23.027],[-44.288,-23.028],[-44.288,-23.026]]],[[[-43.206,-23.025],[-43.201,-23.028],[-43.206,-23.028],[-43.206,-23.025]]],[[[-43.209,-23.04],[-43.191,-23.03],[-43.198,-23.037],[-43.209,-23.04]]],[[[-44.31,-23.025],[-44.309,-23.027],[-44.31,-23.028],[-44.31,-23.025]]],[[[-43.955,-23.026],[-43.951,-23.025],[-43.952,-23.027],[-43.955,-23.026]]],[[[-44.111,-23.023],[-44.109,-23.024],[-44.11,-23.025],[-44.111,-23.023]]],[[[-43.184,-23.023],[-43.182,-23.023],[-43.182,-23.024],[-43.184,-23.023]]],[[[-42.925,-23.023],[-42.928,-23.022],[-42.924,-23.02],[-42.925,-23.023]]],[[[-43.948,-23.022],[-43.945,-23.025],[-43.948,-23.025],[-43.948,-23.022]]],[[[-42.922,-23.013],[-42.92,-23.018],[-42.924,-23.02],[-42.922,-23.013]]],[[[-42.91,-23.006],[-42.907,-23.008],[-42.908,-23.008],[-42.91,-23.006]]],[[[-43.955,-23.006],[-43.949,-23.006],[-43.952,-23.01],[-43.955,-23.006]]],[[[-44.0,-23.0],[-44.0,-23.0],[-44.0,-23.0],[-44.0,-23.0]]],[[[-43.0,-23.0],[-43.0,-23.0],[-43.0,-23.0],[-43.0,-23.0]]],[[[-44.053,-23.007],[-44.029,-22.998],[-44.032,-23.015],[-44.053,-23.007]]],[[[-44.404,-22.992],[-44.4,-22.992],[-44.4,-22.993],[-44.404,-22.992]]],[[[-43.912,-22.992],[-43.91,-22.996],[-43.914,-22.996],[-43.912,-22.992]]],[[[-44.045,-22.989],[-44.04,-22.988],[-44.042,-22.991],[-44.045,-22.989]]],[[[-43.089,-22.988],[-43.083,-22.989],[-43.089,-22.989],[-43.089,-22.988]]],[[[-44.414,-22.993],[-44.406,-22.994],[-44.406,-22.998],[-44.414,-22.993]]],[[[-43.937,-22.998],[-43.918,-22.995],[-43.935,-23.016],[-43.937,-22.998]]],[[[-44.362,-22.985],[-44.361,-22.987],[-44.363,-22.988],[-44.362,-22.985]]],[[[-43.068,-22.983],[-43.064,-22.985],[-43.068,-22.986],[-43.068,-22.983]]],[[[-44.355,-22.983],[-44.352,-22.985],[-44.358,-22.987],[-44.355,-22.983]]],[[[-43.915,-22.98],[-43.908,-22.983],[-43.915,-22.983],[-43.915,-22.98]]],[[[-44.331,-22.979],[-44.329,-22.981],[-44.33,-22.981],[-44.331,-22.979]]],[[[-42.014,-23.0],[-41.974,-22.993],[-42.002,-23.018],[-42.014,-23.0]]],[[[-44.407,-22.98],[-44.396,-22.98],[-44.405,-22.985],[-44.407,-22.98]]],[[[-44.342,-22.977],[-44.34,-22.979],[-44.341,-22.98],[-44.342,-22.977]]],[[[-44.348,-22.977],[-44.345,-22.977],[-44.348,-22.979],[-44.348,-22.977]]],[[[-44.391,-22.972],[-44.388,-22.973],[-44.39,-22.974],[-44.391,-22.972]]],[[[-44.423,-22.969],[-44.415,-22.971],[-44.425,-22.974],[-44.423,-22.969]]],[[[-44.37,-22.967],[-44.368,-22.969],[-44.373,-22.971],[-44.37,-22.967]]],[[[-44.319,-22.967],[-44.318,-22.968],[-44.32,-22.968],[-44.319,-22.967]]],[[[-41.994,-22.964],[-41.985,-22.963],[-41.993,-22.97],[-41.994,-22.964]]],[[[-44.409,-22.963],[-44.406,-22.963],[-44.406,-22.963],[-44.409,-22.963]]],[[[-43.15,-22.962],[-43.148,-22.965],[-43.15,-22.967],[-43.15,-22.962]]],[[[-44.344,-22.962],[-44.342,-22.962],[-44.344,-22.963],[-44.344,-22.962]]],[[[-44.352,-22.962],[-44.347,-22.964],[-44.352,-22.965],[-44.352,-22.962]]],[[[-43.951,-22.959],[-43.947,-22.962],[-43.952,-22.96],[-43.951,-22.959]]],[[[-43.105,-22.956],[-43.102,-22.957],[-43.106,-22.957],[-43.105,-22.956]]],[[[-44.354,-22.955],[-44.352,-22.954],[-44.353,-22.956],[-44.354,-22.955]]],[[[-43.863,-22.947],[-43.858,-22.955],[-43.865,-22.956],[-43.863,-22.947]]],[[[-43.867,-22.946],[-43.864,-22.945],[-43.864,-22.947],[-43.867,-22.946]]],[[[-43.968,-22.944],[-43.965,-22.944],[-43.967,-22.946],[-43.968,-22.944]]],[[[-43.964,-22.944],[-43.962,-22.945],[-43.964,-22.945],[-43.964,-22.944]]],[[[-44.345,-22.939],[-44.336,-22.939],[-44.343,-22.943],[-44.345,-22.939]]],[[[-43.787,-22.926],[-43.784,-22.928],[-43.787,-22.929],[-43.787,-22.926]]],[[[-43.867,-22.925],[-43.864,-22.925],[-43.863,-22.926],[-43.867,-22.925]]],[[[-43.913,-22.935],[-43.874,-22.948],[-43.91,-22.956],[-43.913,-22.935]]],[[[-43.813,-22.925],[-43.81,-22.925],[-43.813,-22.927],[-43.813,-22.925]]],[[[-41.989,-22.893],[-41.976,-22.899],[-41.982,-22.903],[-41.989,-22.893]]],[[[-43.21,-22.892],[-43.208,-22.891],[-43.208,-22.893],[-43.21,-22.892]]],[[[-43.198,-22.888],[-43.195,-22.888],[-43.197,-22.888],[-43.198,-22.888]]],[[[-43.208,-22.886],[-43.21,-22.888],[-43.21,-22.886],[-43.208,-22.886]]],[[[-43.176,-22.883],[-43.173,-22.884],[-43.177,-22.885],[-43.176,-22.883]]],[[[-41.959,-22.885],[-41.961,-22.883],[-41.957,-22.882],[-41.959,-22.885]]],[[[-41.939,-22.877],[-41.942,-22.88],[-41.943,-22.878],[-41.939,-22.877]]],[[[-43.138,-22.876],[-43.133,-22.868],[-43.129,-22.874],[-43.138,-22.876]]],[[[-43.139,-22.868],[-43.139,-22.868],[-43.138,-22.868],[-43.139,-22.868]]],[[[-41.924,-22.863],[-41.918,-22.865],[-41.925,-22.865],[-41.924,-22.863]]],[[[-41.946,-22.863],[-41.94,-22.874],[-41.955,-22.876],[-41.946,-22.863]]],[[[-43.132,-22.862],[-43.118,-22.864],[-43.131,-22.866],[-43.132,-22.862]]],[[[-41.902,-22.85],[-41.903,-22.86],[-41.913,-22.863],[-41.902,-22.85]]],[[[-41.894,-22.843],[-41.887,-22.845],[-41.894,-22.846],[-41.894,-22.843]]],[[[-43.175,-22.839],[-43.174,-22.838],[-43.173,-22.839],[-43.175,-22.839]]],[[[-43.115,-22.834],[-43.105,-22.835],[-43.107,-22.841],[-43.115,-22.834]]],[[[-43.26,-22.826],[-43.257,-22.825],[-43.257,-22.828],[-43.26,-22.826]]],[[[-43.14,-22.825],[-43.14,-22.823],[-43.14,-22.823],[-43.14,-22.825]]],[[[-43.104,-22.83],[-43.093,-22.823],[-43.102,-22.83],[-43.104,-22.83]]],[[[-43.153,-22.82],[-43.152,-22.82],[-43.153,-22.822],[-43.153,-22.82]]],[[[-41.924,-22.813],[-41.918,-22.815],[-41.918,-22.818],[-41.924,-22.813]]],[[[-43.165,-22.813],[-43.161,-22.812],[-43.161,-22.815],[-43.165,-22.813]]],[[[-43.122,-22.805],[-43.123,-22.807],[-43.124,-22.806],[-43.122,-22.805]]],[[[-43.119,-22.802],[-43.118,-22.805],[-43.119,-22.804],[-43.119,-22.802]]],[[[-43.137,-22.803],[-43.138,-22.803],[-43.136,-22.802],[-43.137,-22.803]]],[[[-43.111,-22.802],[-43.108,-22.801],[-43.111,-22.803],[-43.111,-22.802]]],[[[-43.114,-22.797],[-43.111,-22.797],[-43.113,-22.798],[-43.114,-22.797]]],[[[-43.151,-22.787],[-43.15,-22.788],[-43.152,-22.788],[-43.151,-22.787]]],[[[-43.189,-22.795],[-43.17,-22.832],[-43.267,-22.811],[-43.189,-22.795]]],[[[-41.827,-22.772],[-41.819,-22.772],[-41.826,-22.777],[-41.827,-22.772]]],[[[-43.16,-22.776],[-43.152,-22.772],[-43.152,-22.775],[-43.16,-22.776]]],[[[-41.794,-22.77],[-41.784,-22.77],[-41.795,-22.772],[-41.794,-22.77]]],[[[-43.121,-22.757],[-43.114,-22.757],[-43.12,-22.759],[-43.121,-22.757]]],[[[-43.113,-22.754],[-43.102,-22.765],[-43.112,-22.77],[-43.113,-22.754]]],[[[-43.129,-22.746],[-43.127,-22.748],[-43.129,-22.748],[-43.129,-22.746]]],[[[-41.947,-22.74],[-41.941,-22.739],[-41.941,-22.74],[-41.947,-22.74]]],[[[-41.925,-22.722],[-41.921,-22.726],[-41.927,-22.724],[-41.925,-22.722]]],[[[-41.718,-22.419],[-41.712,-22.42],[-41.713,-22.422],[-41.718,-22.419]]],[[[-41.712,-22.415],[-41.699,-22.411],[-41.702,-22.421],[-41.712,-22.415]]],[[[-41.689,-22.399],[-41.685,-22.4],[-41.69,-22.402],[-41.689,-22.399]]],[[[-41.698,-22.4],[-41.692,-22.405],[-41.696,-22.406],[-41.698,-22.4]]],[[[-41.015,-21.619],[-41.017,-21.622],[-41.02,-21.62],[-41.015,-21.619]]],[[[-41.017,-21.612],[-41.013,-21.612],[-41.014,-21.614],[-41.017,-21.612]]],[[[-41.044,-21.608],[-41.02,-21.606],[-41.018,-21.614],[-41.047,-21.616],[-41.044,-21.608]]],[[[-41.053,-21.582],[-41.048,-21.583],[-41.049,-21.588],[-41.053,-21.582]]],[[[-41.854,-20.764],[-41.718,-21.124],[-40.959,-21.297],[-41.074,-21.511],[-40.974,-21.966],[-41.962,-22.535],[-41.988,-22.713],[-41.927,-22.77],[-41.874,-22.737],[-41.863,-22.757],[-42.029,-22.898],[-42.012,-22.997],[-43.052,-22.982],[-43.135,-22.939],[-43.005,-22.715],[-43.086,-22.677],[-43.278,-22.78],[-43.269,-22.819],[-43.237,-22.861],[-43.208,-22.858],[-43.211,-22.897],[-43.158,-22.913],[-43.19,-22.991],[-43.454,-23.024],[-43.552,-23.077],[-43.859,-23.073],[-43.562,-23.058],[-43.794,-22.904],[-43.852,-22.915],[-43.845,-22.891],[-44.238,-23.057],[-44.251,-22.998],[-44.359,-23.023],[-44.303,-22.96],[-44.36,-22.923],[-44.687,-23.076],[-44.713,-23.233],[-44.659,-23.208],[-44.644,-23.185],[-44.685,-23.251],[-44.647,-23.301],[-44.562,-23.227],[-44.583,-23.269],[-44.502,-23.294],[-44.586,-23.36],[-44.875,-23.249],[-44.792,-22.982],[-44.161,-22.678],[-44.636,-22.609],[-44.804,-22.394],[-43.766,-22.063],[-43.074,-22.093],[-42.271,-21.716],[-42.369,-21.62],[-42.152,-20.974],[-41.854,-20.764]]]]}},{"type":"Feature","id":"RN","properties":{"name":"RN","sigla":"RN","uf":"RN"},"geometry":{"type":"MultiPolygon","coordinates":[[[[-35.113,-6.195],[-35.11,-6.195],[-35.113,-6.195],[-35.113,-6.195]]],[[[-35.127,-6.191],[-35.125,-6.19],[-35.124,-6.192],[-35.127,-6.191]]],[[[-36.605,-5.09],[-36.6,-5.092],[-36.606,-5.093],[-36.605,-5.09]]],[[[-36.442,-5.08],[-36.442,-5.082],[-36.443,-5.082],[-36.442,-5.08]]],[[[-36.462,-5.081],[-36.46,-5.08],[-36.458,-5.083],[-36.462,-5.081]]],[[[-36.473,-5.07],[-36.469,-5.073],[-36.475,-5.072],[-36.473,-5.07]]],[[[-36.522,-5.065],[-36.518,-5.07],[-36.525,-5.067],[-36.522,-5.065]]],[[[-37.101,-4.939],[-37.098,-4.937],[-37.1,-4.94],[-37.101,-4.939]]],[[[-37.162,-4.935],[-37.158,-4.932],[-37.158,-4.939],[-37.162,-4.935]]],[[[-37.104,-4.923],[-37.085,-4.932],[-37.081,-4.938],[-37.094,-4.932],[-37.122,-4.935],[-37.104,-4.923]]],[[[-37.252,-4.832],[-37.148,-4.953],[-36.694,-5.097],[-35.487,-5.159],[-35.261,-5.482],[-35.143,-6.214],[-34.969,-6.488],[-35.977,-6.489],[-36.394,-6.294],[-36.507,-6.813],[-36.718,-6.983],[-36.835,-6.731],[-37.011,-6.874],[-37.485,-6.71],[-37.157,-6.152],[-37.231,-6.029],[-37.749,-6.194],[-38.014,-6.427],[-37.966,-6.614],[-38.555,-6.437],[-38.527,-6.193],[-38.165,-5.946],[-37.64,-4.926],[-37.252,-4.832]]],[[[-32.44,-3.872],[-32.438,-3.874],[-32.44,-3.874],[-32.44,-3.872]]],[[[-32.415,-3.868],[-32.412,-3.868],[-32.412,-3.87],[-32.415,-3.868]]],[[[-33.815,-3.865],[-33.813,-3.865],[-33.813,-3.866],[-33.815,-3.865]]],[[[-32.402,-3.86],[-32.4,-3.861],[-32.402,-3.862],[-32.402,-3.86]]],[[[-33.816,-3.857],[-33.812,-3.858],[-33.816,-3.86],[-33.816,-3.857]]],[[[-33.814,-3.855],[-33.817,-3.854],[-33.814,-3.853],[-33.814,-3.855]]],[[[-33.79,-3.872],[-33.796,-3.855],[-33.789,-3.863],[-33.79,-3.872]]],[[[-32.39,-3.817],[-32.424,-3.879],[-32.436,-3.87],[-32.477,-3.877],[-32.39,-3.817]]]]}},{"type":"Feature","id":"RS","properties":{"name":"RS","sigla":"RS","uf":"RS"},"geometry":{"type":"MultiPolygon","coordinates":[[[[-52.076,-32.032],[-52.064,-32.045],[-52.066,-32.051],[-52.076,-32.032]]],[[[-52.133,-32.024],[-52.128,-32.024],[-52.129,-32.025],[-52.133,-32.024]]],[[[-52.113,-32.016],[-52.098,-32.022],[-52.098,-32.023],[-52.113,-32.016]]],[[[-52.098,-32.015],[-52.091,-32.017],[-52.091,-32.022],[-52.098,-32.015]]],[[[-52.203,-32.021],[-52.097,-31.994],[-52.097,-32.007],[-52.203,-32.021]]],[[[-52.127,-31.976],[-52.125,-31.977],[-52.126,-31.977],[-52.127,-31.976]]],[[[-52.128,-31.972],[-52.125,-31.972],[-52.128,-31.974],[-52.128,-31.972]]],[[[-52.123,-31.968],[-52.121,-31.971],[-52.126,-31.969],[-52.123,-31.968]]],[[[-52.137,-31.957],[-52.131,-31.964],[-52.14,-31.959],[-52.137,-31.957]]],[[[-52.051,-31.923],[-52.05,-31.927],[-52.052,-31.926],[-52.051,-31.923]]],[[[-52.04,-31.914],[-52.034,-31.915],[-52.041,-31.915],[-52.04,-31.914]]],[[[-52.111,-31.793],[-52.095,-31.795],[-52.106,-31.802],[-52.111,-31.793]]],[[[-51.962,-31.71],[-51.957,-31.711],[-51.962,-31.715],[-51.962,-31.71]]],[[[-52.068,-31.675],[-52.062,-31.679],[-52.067,-31.682],[-52.068,-31.675]]],[[[-51.622,-31.261],[-51.617,-31.262],[-51.616,-31.264],[-51.622,-31.261]]],[[[-51.0,-31.0],[-51.0,-31.0],[-51.0,-31.0],[-51.0,-31.0]]],[[[-51.148,-30.473],[-51.151,-30.497],[-51.156,-30.5],[-51.148,-30.473]]],[[[-51.102,-30.377],[-51.097,-30.377],[-51.095,-30.381],[-51.102,-30.377]]],[[[-51.068,-30.354],[-51.065,-30.357],[-51.068,-30.358],[-51.068,-30.354]]],[[[-51.041,-30.325],[-51.038,-30.325],[-51.038,-30.326],[-51.041,-30.325]]],[[[-51.169,-30.263],[-51.164,-30.267],[-51.17,-30.264],[-51.169,-30.263]]],[[[-51.263,-30.112],[-51.261,-30.11],[-51.261,-30.112],[-51.263,-30.112]]],[[[-51.292,-30.065],[-51.286,-30.059],[-51.287,-30.064],[-51.292,-30.065]]],[[[-51.23,-30.014],[-51.226,-30.019],[-51.231,-30.017],[-51.23,-30.014]]],[[[-51.235,-30.008],[-51.233,-30.01],[-51.234,-30.011],[-51.235,-30.008]]],[[[-49.705,-29.346],[-49.703,-29.348],[-49.704,-29.349],[-49.705,-29.346]]],[[[-53.875,-27.131],[-52.165,-27.274],[-51.89,-27.52],[-51.49,-27.56],[-50.544,-28.427],[-49.765,-28.46],[-49.694,-28.626],[-49.935,-28.728],[-49.963,-29.118],[-50.166,-29.248],[-49.713,-29.327],[-50.767,-31.109],[-52.083,-32.159],[-52.005,-31.943],[-52.098,-31.835],[-51.859,-31.87],[-51.255,-31.474],[-51.17,-31.065],[-50.98,-31.038],[-50.702,-30.746],[-50.717,-30.352],[-50.574,-30.481],[-50.596,-30.195],[-50.93,-30.436],[-51.032,-30.273],[-51.248,-30.187],[-51.219,-30.003],[-51.3,-30.005],[-51.296,-30.302],[-51.095,-30.366],[-51.274,-30.497],[-51.283,-30.812],[-51.37,-30.635],[-51.442,-31.087],[-51.951,-31.342],[-52.032,-31.695],[-52.038,-31.56],[-52.111,-31.554],[-52.257,-31.85],[-52.235,-31.894],[-52.222,-31.872],[-52.137,-31.918],[-52.116,-31.939],[-52.112,-31.944],[-52.112,-31.952],[-52.219,-31.959],[-52.253,-32.047],[-52.079,-32.028],[-52.098,-32.161],[-52.613,-33.086],[-53.374,-33.747],[-53.53,-33.662],[-53.529,-33.172],[-53.094,-32.724],[-53.594,-32.429],[-53.713,-32.101],[-54.525,-31.498],[-55.244,-31.254],[-55.593,-30.845],[-56.008,-31.063],[-56.021,-30.782],[-56.803,-30.104],[-57.068,-30.088],[-57.227,-30.286],[-57.615,-30.179],[-55.874,-28.359],[-55.695,-28.422],[-55.772,-28.244],[-55.032,-27.854],[-54.812,-27.535],[-54.278,-27.445],[-53.875,-27.131]]]]}},{"type":"Feature","id":"RO","properties":{"name":"RO","sigla":"RO","uf":"RO"},"geometry":{"type":"Polygon","coordinates":[[[-63.535,-7.974],[-62.867,-7.976],[-62.125,-8.802],[-61.906,-8.875],[-61.713,-8.688],[-61.521,-8.822],[-61.633,-9.277],[-61.478,-9.629],[-61.55,-10.986],[-59.977,-11.122],[-59.921,-11.398],[-60.115,-11.591],[-60.109,-11.84],[-59.774,-12.341],[-60.069,-12.616],[-60.371,-13.319],[-60.705,-13.325],[-60.893,-13.558],[-61.824,-13.539],[-62.12,-13.154],[-62.764,-13.023],[-63.093,-12.658],[-63.327,-12.705],[-63.712,-12.458],[-64.373,-12.467],[-64.513,-12.223],[-65.032,-11.995],[-65.318,-11.448],[-65.364,-9.712],[-65.56,-9.845],[-65.768,-9.736],[-66.426,-9.9],[-66.806,-9.815],[-66.409,-9.407],[-65.97,-9.413],[-65.792,-9.586],[-65.247,-9.258],[-65.098,-9.433],[-64.839,-8.994],[-64.149,-8.959],[-63.944,-8.331],[-63.782,-8.329],[-63.535,-7.974]]]}},{"type":"Feature","id":"RR","properties":{"name":"RR","sigla":"RR","uf":"RR"},"geometry":{"type":"Polygon","coordinates":[[[-60.169,5.226],[-59.969,5.073],[-60.163,4.523],[-59.673,4.383],[-59.726,4.193],[-59.516,3.941],[-59.863,3.565],[-59.989,2.684],[-59.724,2.278],[-59.748,1.849],[-58.894,1.276],[-58.895,0.264],[-60.038,0.263],[-60.4,-0.51],[-60.304,-0.711],[-60.531,-0.875],[-60.753,-0.861],[-61.087,-0.5],[-61.429,-0.634],[-61.629,-1.301],[-61.483,-1.581],[-61.897,-1.395],[-62.51,-0.759],[-62.291,-0.647],[-62.188,-0.331],[-62.533,0.509],[-62.472,1.086],[-62.805,1.591],[-62.706,1.94],[-63.36,2.197],[-63.407,2.436],[-64.056,2.498],[-63.994,2.77],[-64.235,3.114],[-64.186,3.56],[-64.825,4.244],[-64.164,4.126],[-63.964,3.868],[-63.677,4.019],[-63.497,3.84],[-63.429,3.977],[-63.205,3.951],[-62.96,3.608],[-62.744,3.673],[-62.749,4.035],[-61.934,4.118],[-61.523,4.282],[-61.345,4.532],[-60.991,4.516],[-60.59,4.943],[-60.731,5.197],[-60.169,5.226]]]}},{"type":"Feature","id":"SC","properties":{"name":"SC","sigla":"SC","uf":"SC"},"geometry":{"type":"MultiPolygon","coordinates":[[[[-48.753,-28.512],[-48.753,-28.509],[-48.752,-28.509],[-48.753,-28.512]]],[[[-48.778,-28.503],[-48.775,-28.504],[-48.778,-28.505],[-48.778,-28.503]]],[[[-48.771,-28.5],[-48.768,-28.503],[-48.772,-28.502],[-48.771,-28.5]]],[[[-48.748,-28.495],[-48.747,-28.497],[-48.749,-28.497],[-48.748,-28.495]]],[[[-48.799,-28.493],[-48.793,-28.496],[-48.8,-28.496],[-48.799,-28.493]]],[[[-48.796,-28.484],[-48.791,-28.488],[-48.798,-28.488],[-48.796,-28.484]]],[[[-48.71,-28.447],[-48.708,-28.448],[-48.71,-28.448],[-48.71,-28.447]]],[[[-48.822,-28.37],[-48.82,-28.372],[-48.823,-28.372],[-48.822,-28.37]]],[[[-48.848,-28.34],[-48.844,-28.342],[-48.847,-28.343],[-48.848,-28.34]]],[[[-48.649,-28.321],[-48.646,-28.32],[-48.65,-28.326],[-48.649,-28.321]]],[[[-48.744,-28.279],[-48.743,-28.28],[-48.745,-28.281],[-48.744,-28.279]]],[[[-48.74,-28.27],[-48.738,-28.273],[-48.742,-28.276],[-48.74,-28.27]]],[[[-48.655,-28.248],[-48.653,-28.249],[-48.655,-28.25],[-48.655,-28.248]]],[[[-48.644,-28.152],[-48.641,-28.155],[-48.643,-28.154],[-48.644,-28.152]]],[[[-48.63,-28.082],[-48.627,-28.084],[-48.63,-28.083],[-48.63,-28.082]]],[[[-48.617,-27.986],[-48.617,-27.988],[-48.618,-27.989],[-48.618,-27.986],[-48.617,-27.986]]],[[[-48.546,-27.934],[-48.538,-27.937],[-48.542,-27.942],[-48.546,-27.934]]],[[[-48.431,-27.842],[-48.428,-27.845],[-48.435,-27.849],[-48.431,-27.842]]],[[[-48.575,-27.841],[-48.572,-27.842],[-48.576,-27.842],[-48.575,-27.841]]],[[[-48.508,-27.837],[-48.501,-27.84],[-48.507,-27.84],[-48.508,-27.837]]],[[[-48.527,-27.837],[-48.525,-27.845],[-48.53,-27.843],[-48.527,-27.837]]],[[[-48.531,-27.832],[-48.526,-27.831],[-48.529,-27.834],[-48.531,-27.832]]],[[[-48.594,-27.708],[-48.596,-27.707],[-48.594,-27.707],[-48.594,-27.708]]],[[[-48.567,-27.699],[-48.564,-27.702],[-48.567,-27.703],[-48.567,-27.699]]],[[[-48.467,-27.693],[-48.463,-27.701],[-48.468,-27.705],[-48.467,-27.693]]],[[[-48.635,-27.645],[-48.632,-27.646],[-48.634,-27.647],[-48.635,-27.645]]],[[[-48.388,-27.611],[-48.384,-27.611],[-48.387,-27.613],[-48.388,-27.611]]],[[[-48.567,-27.49],[-48.566,-27.493],[-48.568,-27.495],[-48.567,-27.49]]],[[[-48.364,-27.487],[-48.357,-27.49],[-48.366,-27.49],[-48.364,-27.487]]],[[[-48.565,-27.477],[-48.56,-27.474],[-48.564,-27.481],[-48.565,-27.477]]],[[[-48.349,-27.442],[-48.347,-27.444],[-48.349,-27.444],[-48.349,-27.442]]],[[[-48.566,-27.429],[-48.563,-27.427],[-48.564,-27.43],[-48.566,-27.429]]],[[[-48.368,-27.425],[-48.365,-27.424],[-48.366,-27.426],[-48.368,-27.425]]],[[[-48.357,-27.418],[-48.354,-27.419],[-48.358,-27.42],[-48.357,-27.418]]],[[[-48.477,-27.414],[-48.475,-27.417],[-48.477,-27.418],[-48.477,-27.414]]],[[[-48.438,-27.422],[-48.359,-27.447],[-48.57,-27.837],[-48.546,-27.458],[-48.438,-27.422]]],[[[-48.526,-27.328],[-48.524,-27.329],[-48.527,-27.331],[-48.526,-27.328]]],[[[-48.533,-27.306],[-48.528,-27.305],[-48.53,-27.308],[-48.533,-27.306]]],[[[-48.377,-27.284],[-48.359,-27.273],[-48.357,-27.3],[-48.377,-27.284]]],[[[-48.333,-27.274],[-48.33,-27.275],[-48.334,-27.278],[-48.333,-27.274]]],[[[-48.474,-27.205],[-48.465,-27.207],[-48.475,-27.21],[-48.474,-27.205]]],[[[-48.4,-27.18],[-48.397,-27.181],[-48.398,-27.182],[-48.4,-27.18]]],[[[-48.41,-27.181],[-48.402,-27.181],[-48.411,-27.188],[-48.41,-27.181]]],[[[-48.547,-27.14],[-48.542,-27.142],[-48.55,-27.145],[-48.547,-27.14]]],[[[-48.638,-26.743],[-48.634,-26.745],[-48.639,-26.746],[-48.638,-26.743]]],[[[-48.676,-26.695],[-48.673,-26.695],[-48.674,-26.696],[-48.676,-26.695]]],[[[-48.582,-26.468],[-48.579,-26.468],[-48.58,-26.469],[-48.582,-26.468]]],[[[-48.569,-26.459],[-48.564,-26.461],[-48.57,-26.46],[-48.569,-26.459]]],[[[-48.583,-26.459],[-48.577,-26.46],[-48.581,-26.462],[-48.583,-26.459]]],[[[-48.624,-26.442],[-48.621,-26.442],[-48.622,-26.443],[-48.624,-26.442]]],[[[-48.623,-26.419],[-48.622,-26.421],[-48.624,-26.423],[-48.623,-26.419]]],[[[-48.621,-26.414],[-48.619,-26.413],[-48.621,-26.416],[-48.621,-26.414]]],[[[-48.526,-26.385],[-48.525,-26.387],[-48.526,-26.388],[-48.526,-26.385]]],[[[-48.525,-26.381],[-48.522,-26.382],[-48.525,-26.384],[-48.525,-26.381]]],[[[-48.643,-26.369],[-48.639,-26.369],[-48.639,-26.37],[-48.643,-26.369]]],[[[-48.523,-26.368],[-48.52,-26.372],[-48.523,-26.375],[-48.523,-26.368]]],[[[-48.632,-26.383],[-48.656,-26.367],[-48.636,-26.371],[-48.632,-26.383]]],[[[-48.697,-26.352],[-48.69,-26.352],[-48.698,-26.353],[-48.697,-26.352]]],[[[-48.694,-26.349],[-48.691,-26.35],[-48.694,-26.35],[-48.694,-26.349]]],[[[-48.722,-26.335],[-48.71,-26.334],[-48.71,-26.338],[-48.722,-26.335]]],[[[-48.703,-26.342],[-48.696,-26.332],[-48.688,-26.347],[-48.703,-26.342]]],[[[-48.756,-26.299],[-48.727,-26.31],[-48.732,-26.315],[-48.756,-26.299]]],[[[-48.717,-26.273],[-48.714,-26.274],[-48.714,-26.275],[-48.717,-26.273]]],[[[-48.71,-26.265],[-48.707,-26.273],[-48.711,-26.274],[-48.71,-26.265]]],[[[-48.683,-26.263],[-48.68,-26.264],[-48.683,-26.265],[-48.683,-26.263]]],[[[-48.691,-26.256],[-48.686,-26.258],[-48.692,-26.257],[-48.691,-26.256]]],[[[-48.71,-26.25],[-48.706,-26.252],[-48.71,-26.251],[-48.71,-26.25]]],[[[-48.684,-26.25],[-48.677,-26.253],[-48.684,-26.255],[-48.684,-26.25]]],[[[-48.494,-26.202],[-48.49,-26.203],[-48.493,-26.203],[-48.494,-26.202]]],[[[-48.584,-26.2],[-48.58,-26.202],[-48.584,-26.201],[-48.584,-26.2]]],[[[-48.574,-26.198],[-48.57,-26.196],[-48.571,-26.2],[-48.574,-26.198]]],[[[-48.488,-26.18],[-48.487,-26.182],[-48.489,-26.182],[-48.488,-26.18]]],[[[-48.486,-26.176],[-48.481,-26.18],[-48.484,-26.183],[-48.486,-26.176]]],[[[-48.482,-26.165],[-48.48,-26.166],[-48.482,-26.167],[-48.482,-26.165]]],[[[-48.486,-26.164],[-48.483,-26.165],[-48.485,-26.166],[-48.486,-26.164]]],[[[-48.776,-26.165],[-48.772,-26.165],[-48.771,-26.169],[-48.776,-26.165]]],[[[-48.78,-26.152],[-48.778,-26.15],[-48.777,-26.154],[-48.78,-26.152]]],[[[-48.782,-28.522],[-49.713,-29.326],[-49.963,-29.199],[-50.115,-29.259],[-50.035,-29.348],[-50.065,-29.341],[-50.152,-29.202],[-49.963,-29.118],[-49.935,-28.728],[-49.694,-28.626],[-49.765,-28.46],[-50.625,-28.391],[-51.082,-27.835],[-52.165,-27.274],[-52.978,-27.221],[-53.029,-27.081],[-53.527,-27.196],[-53.54,-26.935],[-53.749,-26.744],[-53.699,-26.364],[-53.282,-26.246],[-53.091,-26.39],[-51.512,-26.584],[-51.411,-26.717],[-51.229,-26.616],[-51.243,-26.325],[-50.718,-26.245],[-50.572,-26.004],[-50.285,-26.309],[-50.126,-26.204],[-50.172,-26.025],[-49.555,-26.237],[-49.175,-26.002],[-48.644,-25.956],[-48.585,-26.173],[-48.706,-26.249],[-48.807,-26.077],[-48.8,-26.3],[-48.613,-26.452],[-48.615,-26.401],[-48.632,-26.37],[-48.713,-26.307],[-48.493,-26.218],[-48.689,-26.678],[-48.608,-27.117],[-48.564,-27.155],[-48.537,-27.15],[-48.508,-27.11],[-48.465,-27.145],[-48.625,-27.244],[-48.6,-27.317],[-48.523,-27.333],[-48.647,-27.485],[-48.567,-27.595],[-48.659,-27.647],[-48.573,-27.887],[-48.688,-28.138],[-48.645,-28.235],[-48.684,-28.267],[-48.741,-28.387],[-48.748,-28.495],[-48.83,-28.439],[-48.739,-28.347],[-48.702,-28.237],[-48.883,-28.342],[-48.86,-28.484],[-48.782,-28.522]]]]}},{"type":"Feature","id":"SP","properties":{"name":"SP","sigla":"SP","uf":"SP"},"geometry":{"type":"MultiPolygon","coordinates":[[[[-48.088,-25.29],[-48.083,-25.289],[-48.088,-25.292],[-48.088,-25.29]]],[[[-47.956,-25.275],[-47.953,-25.273],[-47.952,-25.274],[-47.956,-25.275]]],[[[-48.079,-25.289],[-48.078,-25.278],[-48.061,-25.27],[-48.079,-25.289]]],[[[-47.915,-25.166],[-47.909,-25.167],[-47.915,-25.168],[-47.915,-25.166]]],[[[-47.863,-25.131],[-47.86,-25.134],[-47.862,-25.134],[-47.863,-25.131]]],[[[-47.867,-25.122],[-47.849,-25.121],[-47.865,-25.128],[-47.867,-25.122]]],[[[-48.035,-25.111],[-48.032,-25.111],[-48.034,-25.114],[-48.035,-25.111]]],[[[-48.025,-25.111],[-48.023,-25.109],[-48.024,-25.111],[-48.025,-25.111]]],[[[-48.032,-25.111],[-48.026,-25.111],[-48.027,-25.116],[-48.032,-25.111]]],[[[-48.027,-25.105],[-48.024,-25.106],[-48.026,-25.107],[-48.027,-25.105]]],[[[-48.019,-25.093],[-48.015,-25.098],[-48.021,-25.099],[-48.019,-25.093]]],[[[-48.039,-25.062],[-48.037,-25.064],[-48.04,-25.063],[-48.039,-25.062]]],[[[-48.017,-25.04],[-48.014,-25.046],[-48.016,-25.048],[-48.017,-25.04]]],[[[-47.905,-24.996],[-47.908,-24.998],[-47.908,-24.997],[-47.905,-24.996]]],[[[-47.865,-24.896],[-47.87,-24.913],[-47.88,-24.905],[-47.865,-24.896]]],[[[-47.82,-24.888],[-47.81,-24.907],[-47.841,-24.902],[-47.868,-24.961],[-47.903,-24.964],[-47.926,-25.012],[-47.923,-25.034],[-48.006,-25.057],[-48.012,-25.033],[-47.961,-25.016],[-47.909,-24.959],[-47.891,-24.916],[-47.872,-24.918],[-47.82,-24.888]]],[[[-47.78,-24.868],[-47.776,-24.874],[-47.789,-24.88],[-47.78,-24.868]]],[[[-47.689,-24.808],[-47.696,-24.808],[-47.687,-24.806],[-47.689,-24.808]]],[[[-47.593,-24.741],[-47.591,-24.742],[-47.603,-24.746],[-47.593,-24.741]]],[[[-47.579,-24.733],[-47.573,-24.733],[-47.579,-24.734],[-47.579,-24.733]]],[[[-47.566,-24.724],[-47.568,-24.726],[-47.572,-24.728],[-47.566,-24.724]]],[[[-47.489,-24.702],[-47.478,-24.704],[-47.49,-24.703],[-47.489,-24.702]]],[[[-47.478,-24.705],[-47.433,-24.69],[-47.718,-24.868],[-47.914,-25.052],[-47.839,-24.904],[-47.807,-24.911],[-47.523,-24.695],[-47.526,-24.703],[-47.478,-24.705]]],[[[-47.4,-24.661],[-47.402,-24.666],[-47.407,-24.667],[-47.4,-24.661]]],[[[-46.678,-24.483],[-46.671,-24.487],[-46.676,-24.491],[-46.678,-24.483]]],[[[-46.987,-24.38],[-46.984,-24.382],[-46.986,-24.383],[-46.987,-24.38]]],[[[-46.807,-24.374],[-46.804,-24.376],[-46.808,-24.376],[-46.807,-24.374]]],[[[-46.979,-24.362],[-46.982,-24.362],[-46.979,-24.36],[-46.979,-24.362]]],[[[-45.693,-24.097],[-45.68,-24.098],[-45.708,-24.114],[-45.693,-24.097]]],[[[-45.72,-24.076],[-45.718,-24.076],[-45.72,-24.077],[-45.72,-24.076]]],[[[-45.656,-24.075],[-45.653,-24.075],[-45.655,-24.077],[-45.656,-24.075]]],[[[-46.267,-24.05],[-46.26,-24.051],[-46.26,-24.053],[-46.267,-24.05]]],[[[-46.217,-24.01],[-46.219,-24.009],[-46.216,-24.008],[-46.217,-24.01]]],[[[-46.256,-24.002],[-46.253,-24.002],[-46.253,-24.003],[-46.256,-24.002]]],[[[-46.0,-24.0],[-46.0,-24.0],[-46.0,-24.0],[-46.0,-24.0]]],[[[-46.41,-23.986],[-46.404,-23.982],[-46.404,-23.985],[-46.41,-23.986]]],[[[-46.42,-23.978],[-46.417,-23.98],[-46.418,-23.981],[-46.42,-23.978]]],[[[-46.183,-23.972],[-46.181,-23.976],[-46.184,-23.975],[-46.183,-23.972]]],[[[-46.168,-23.968],[-46.166,-23.967],[-46.166,-23.968],[-46.168,-23.968]]],[[[-45.298,-23.92],[-45.297,-23.921],[-45.298,-23.921],[-45.298,-23.92]]],[[[-46.412,-23.974],[-46.314,-23.934],[-46.292,-23.987],[-46.342,-23.969],[-46.412,-23.974]]],[[[-46.385,-23.917],[-46.383,-23.92],[-46.387,-23.919],[-46.385,-23.917]]],[[[-45.265,-23.888],[-45.263,-23.89],[-45.265,-23.89],[-45.265,-23.888]]],[[[-45.785,-23.86],[-45.776,-23.868],[-45.787,-23.869],[-45.785,-23.86]]],[[[-46.324,-24.023],[-46.181,-23.926],[-46.161,-23.946],[-46.184,-23.963],[-46.188,-23.973],[-46.182,-23.991],[-46.247,-23.992],[-46.267,-24.005],[-46.287,-24.045],[-46.324,-24.023]]],[[[-45.28,-23.851],[-45.277,-23.85],[-45.277,-23.852],[-45.28,-23.851]]],[[[-45.527,-23.85],[-45.522,-23.849],[-45.525,-23.856],[-45.527,-23.85]]],[[[-45.156,-23.827],[-45.153,-23.828],[-45.155,-23.83],[-45.156,-23.827]]],[[[-45.228,-23.811],[-45.226,-23.813],[-45.228,-23.815],[-45.228,-23.811]]],[[[-45.388,-23.808],[-45.387,-23.81],[-45.389,-23.811],[-45.388,-23.808]]],[[[-45.671,-23.805],[-45.668,-23.806],[-45.672,-23.807],[-45.671,-23.805]]],[[[-45.39,-23.802],[-45.388,-23.803],[-45.39,-23.802],[-45.39,-23.802]]],[[[-45.385,-23.8],[-45.384,-23.803],[-45.387,-23.803],[-45.385,-23.8]]],[[[-45.725,-23.801],[-45.716,-23.806],[-45.726,-23.803],[-45.725,-23.801]]],[[[-45.157,-23.811],[-45.115,-23.803],[-45.117,-23.813],[-45.157,-23.811]]],[[[-45.713,-23.788],[-45.704,-23.789],[-45.718,-23.794],[-45.713,-23.788]]],[[[-45.366,-23.766],[-45.363,-23.767],[-45.365,-23.768],[-45.366,-23.766]]],[[[-45.03,-23.738],[-45.033,-23.738],[-45.029,-23.737],[-45.03,-23.738]]],[[[-45.024,-23.746],[-45.006,-23.752],[-45.014,-23.762],[-45.024,-23.746]]],[[[-45.366,-23.81],[-45.229,-23.777],[-45.289,-23.857],[-45.251,-23.968],[-45.292,-23.911],[-45.46,-23.915],[-45.366,-23.81]]],[[[-45.292,-23.594],[-45.282,-23.601],[-45.295,-23.602],[-45.292,-23.594]]],[[[-45.313,-23.582],[-45.311,-23.584],[-45.312,-23.585],[-45.313,-23.582]]],[[[-45.162,-23.571],[-45.145,-23.569],[-45.146,-23.572],[-45.162,-23.571]]],[[[-45.219,-23.55],[-45.216,-23.551],[-45.219,-23.551],[-45.219,-23.55]]],[[[-45.033,-23.547],[-45.027,-23.548],[-45.033,-23.549],[-45.033,-23.547]]],[[[-45.215,-23.533],[-45.211,-23.532],[-45.21,-23.533],[-45.215,-23.533]]],[[[-45.079,-23.565],[-45.074,-23.539],[-45.04,-23.542],[-45.079,-23.565]]],[[[-45.042,-23.517],[-45.04,-23.518],[-45.042,-23.519],[-45.042,-23.517]]],[[[-44.904,-23.425],[-44.902,-23.427],[-44.906,-23.427],[-44.904,-23.425]]],[[[-44.862,-23.422],[-44.86,-23.423],[-44.862,-23.424],[-44.862,-23.422]]],[[[-44.855,-23.421],[-44.849,-23.421],[-44.86,-23.426],[-44.855,-23.421]]],[[[-44.856,-23.399],[-44.85,-23.403],[-44.857,-23.4],[-44.856,-23.399]]],[[[-44.889,-23.388],[-44.887,-23.39],[-44.889,-23.39],[-44.889,-23.388]]],[[[-44.938,-23.387],[-44.936,-23.389],[-44.939,-23.389],[-44.938,-23.387]]],[[[-44.89,-23.384],[-44.887,-23.385],[-44.889,-23.386],[-44.89,-23.384]]],[[[-44.947,-23.383],[-44.943,-23.388],[-44.951,-23.389],[-44.947,-23.383]]],[[[-44.907,-23.377],[-44.899,-23.378],[-44.908,-23.38],[-44.907,-23.377]]],[[[-44.905,-23.352],[-44.902,-23.352],[-44.904,-23.354],[-44.905,-23.352]]],[[[-44.007,-23.097],[-43.865,-23.045],[-43.86,-23.073],[-44.007,-23.097]]],[[[-50.576,-19.816],[-49.265,-19.962],[-49.232,-20.298],[-49.019,-20.154],[-48.899,-20.441],[-48.828,-20.164],[-47.466,-19.964],[-47.097,-20.644],[-47.24,-20.885],[-47.011,-21.422],[-46.618,-21.421],[-46.763,-21.547],[-46.606,-21.65],[-46.723,-22.307],[-46.407,-22.541],[-46.345,-22.905],[-45.789,-22.857],[-45.717,-22.579],[-45.399,-22.653],[-44.809,-22.405],[-44.636,-22.609],[-44.161,-22.678],[-44.792,-22.982],[-44.889,-23.224],[-44.725,-23.37],[-44.908,-23.334],[-45.409,-23.625],[-45.412,-23.825],[-45.896,-23.757],[-46.377,-23.872],[-46.457,-23.93],[-46.418,-23.983],[-46.411,-23.988],[-46.405,-23.987],[-46.388,-23.976],[-46.374,-23.986],[-46.398,-24.034],[-46.837,-24.212],[-47.228,-24.572],[-47.526,-24.692],[-47.868,-24.888],[-47.983,-25.02],[-48.022,-25.0],[-48.063,-25.065],[-48.036,-25.117],[-48.02,-25.117],[-48.021,-25.1],[-47.996,-25.097],[-48.003,-25.081],[-47.909,-25.063],[-47.894,-25.107],[-48.057,-25.266],[-48.252,-24.979],[-48.535,-25.099],[-48.582,-24.672],[-49.312,-24.664],[-49.201,-24.344],[-49.611,-23.852],[-49.678,-23.165],[-49.986,-22.898],[-50.742,-22.961],[-51.264,-22.669],[-52.108,-22.517],[-52.223,-22.674],[-53.109,-22.614],[-52.377,-22.107],[-51.343,-20.356],[-50.576,-19.816]]]]}},{"type":"Feature","id":"SE","properties":{"name":"SE","sigla":"SE","uf":"SE"},"geometry":{"type":"MultiPolygon","coordinates":[[[[-37.387,-11.463],[-37.381,-11.462],[-37.383,-11.465],[-37.387,-11.463]]],[[[-37.377,-11.441],[-37.368,-11.438],[-37.373,-11.441],[-37.377,-11.441]]],[[[-37.398,-11.375],[-37.395,-11.375],[-37.398,-11.377],[-37.398,-11.375]]],[[[-37.156,-11.144],[-37.152,-11.144],[-37.153,-11.146],[-37.156,-11.144]]],[[[-36.564,-10.56],[-36.57,-10.564],[-36.572,-10.563],[-36.564,-10.56]]],[[[-36.529,-10.547],[-36.527,-10.548],[-36.53,-10.548],[-36.529,-10.547]]],[[[-36.529,-10.542],[-36.526,-10.543],[-36.529,-10.543],[-36.529,-10.542]]],[[[-37.96,-9.533],[-36.992,-9.977],[-36.391,-10.501],[-36.513,-10.531],[-36.584,-10.564],[-36.912,-10.804],[-37.173,-11.133],[-37.318,-11.425],[-37.396,-11.372],[-37.566,-11.554],[-37.546,-11.705],[-37.978,-11.394],[-38.24,-10.881],[-38.212,-10.709],[-37.814,-10.691],[-37.859,-10.426],[-37.736,-10.333],[-37.998,-9.917],[-37.96,-9.533]]]]}},{"type":"Feature","id":"TO","properties":{"name":"TO","sigla":"TO","uf":"TO"},"geometry":{"type":"Polygon","coordinates":[[[-48.353,-5.174],[-47.886,-5.261],[-47.483,-5.565],[-47.379,-6.271],[-47.53,-6.977],[-47.749,-7.173],[-47.5,-7.294],[-47.591,-7.44],[-47.043,-8.054],[-46.605,-7.896],[-46.477,-8.012],[-46.508,-8.271],[-46.807,-8.399],[-47.069,-9.064],[-46.561,-9.484],[-46.647,-9.73],[-46.368,-10.169],[-45.794,-10.268],[-45.699,-10.167],[-46.617,-11.289],[-46.479,-11.516],[-46.087,-11.622],[-46.313,-11.63],[-46.375,-11.869],[-46.171,-11.901],[-46.398,-12.04],[-46.352,-12.337],[-46.154,-12.483],[-46.305,-12.95],[-46.115,-12.918],[-46.364,-12.991],[-46.418,-12.823],[-46.455,-12.971],[-47.427,-13.289],[-47.635,-13.105],[-47.679,-13.468],[-47.824,-13.312],[-48.165,-13.306],[-48.147,-13.152],[-48.442,-13.292],[-48.509,-13.129],[-48.586,-13.318],[-48.603,-13.059],[-48.857,-12.805],[-48.976,-12.957],[-49.119,-12.79],[-49.237,-12.884],[-49.369,-13.275],[-50.293,-12.84],[-50.143,-12.396],[-50.511,-12.861],[-50.706,-12.61],[-50.603,-10.661],[-50.038,-9.289],[-49.283,-8.38],[-49.151,-7.802],[-49.384,-7.544],[-49.185,-7.235],[-49.209,-6.925],[-48.383,-6.38],[-48.294,-5.757],[-48.132,-5.618],[-48.385,-5.394],[-48.591,-5.422],[-48.755,-5.349],[-48.353,-5.174]]]}}]}